[
	{
		"id" : 1001,
		"name" : "พระนคร",
		"name_en" : "PHRA NAKHON",
		"province_id" : 10
	},
	{
		"id" : 1002,
		"name" : "ดุสิต",
		"name_en" : "DUSIT",
		"province_id" : 10
	},
	{
		"id" : 1003,
		"name" : "หนองจอก",
		"name_en" : "NONG CHOK",
		"province_id" : 10
	},
	{
		"id" : 1004,
		"name" : "บางรัก",
		"name_en" : "BANG RAK",
		"province_id" : 10
	},
	{
		"id" : 1005,
		"name" : "บางเขน",
		"name_en" : "BANG KHEN",
		"province_id" : 10
	},
	{
		"id" : 1006,
		"name" : "บางกะปิ",
		"name_en" : "BANG KAPI",
		"province_id" : 10
	},
	{
		"id" : 1007,
		"name" : "ปทุมวัน",
		"name_en" : "PATHUM WAN",
		"province_id" : 10
	},
	{
		"id" : 1008,
		"name" : "ป้อมปราบศัตรูพ่าย",
		"name_en" : "POM PRAP SATTRU PHAI",
		"province_id" : 10
	},
	{
		"id" : 1009,
		"name" : "พระโขนง",
		"name_en" : "PHRA KHANONG",
		"province_id" : 10
	},
	{
		"id" : 1010,
		"name" : "มีนบุรี",
		"name_en" : "MIN BURI",
		"province_id" : 10
	},
	{
		"id" : 1011,
		"name" : "ลาดกระบัง",
		"name_en" : "LAT KRABANG",
		"province_id" : 10
	},
	{
		"id" : 1012,
		"name" : "ยานนาวา",
		"name_en" : "YAN NAWA",
		"province_id" : 10
	},
	{
		"id" : 1013,
		"name" : "สัมพันธวงศ์",
		"name_en" : "SAMPHANTHAWONG",
		"province_id" : 10
	},
	{
		"id" : 1014,
		"name" : "พญาไท",
		"name_en" : "PHAYA THAI",
		"province_id" : 10
	},
	{
		"id" : 1015,
		"name" : "ธนบุรี",
		"name_en" : "THON BURI",
		"province_id" : 10
	},
	{
		"id" : 1016,
		"name" : "บางกอกใหญ่",
		"name_en" : "BANGKOK YAI",
		"province_id" : 10
	},
	{
		"id" : 1017,
		"name" : "ห้วยขวาง",
		"name_en" : "HUAI KHWANG",
		"province_id" : 10
	},
	{
		"id" : 1018,
		"name" : "คลองสาน",
		"name_en" : "KHLONG SAN",
		"province_id" : 10
	},
	{
		"id" : 1019,
		"name" : "ตลิ่งชัน",
		"name_en" : "TALING CHAN",
		"province_id" : 10
	},
	{
		"id" : 1020,
		"name" : "บางกอกน้อย",
		"name_en" : "BANGKOK NOI",
		"province_id" : 10
	},
	{
		"id" : 1021,
		"name" : "บางขุนเทียน",
		"name_en" : "BANG KHUN THIAN",
		"province_id" : 10
	},
	{
		"id" : 1022,
		"name" : "ภาษีเจริญ",
		"name_en" : "PHASI CHAROEN",
		"province_id" : 10
	},
	{
		"id" : 1023,
		"name" : "หนองแขม",
		"name_en" : "NONG KHAEM",
		"province_id" : 10
	},
	{
		"id" : 1024,
		"name" : "ราษฎร์บูรณะ",
		"name_en" : "RAT BURANA",
		"province_id" : 10
	},
	{
		"id" : 1025,
		"name" : "บางพลัด",
		"name_en" : "BANG PHLAT",
		"province_id" : 10
	},
	{
		"id" : 1026,
		"name" : "ดินแดง",
		"name_en" : "DIN DAENG",
		"province_id" : 10
	},
	{
		"id" : 1027,
		"name" : "บึงกุ่ม",
		"name_en" : "BUENG KUM",
		"province_id" : 10
	},
	{
		"id" : 1028,
		"name" : "สาทร",
		"name_en" : "SATHON",
		"province_id" : 10
	},
	{
		"id" : 1029,
		"name" : "บางซื่อ",
		"name_en" : "BANG SUE",
		"province_id" : 10
	},
	{
		"id" : 1030,
		"name" : "จตุจักร",
		"name_en" : "CHATUCHAK",
		"province_id" : 10
	},
	{
		"id" : 1031,
		"name" : "บางคอแหลม",
		"name_en" : "BANG KHO LAEM",
		"province_id" : 10
	},
	{
		"id" : 1032,
		"name" : "ประเวศ",
		"name_en" : "PRAWET",
		"province_id" : 10
	},
	{
		"id" : 1033,
		"name" : "คลองเตย",
		"name_en" : "KHLONG TOEI",
		"province_id" : 10
	},
	{
		"id" : 1034,
		"name" : "สวนหลวง",
		"name_en" : "SUAN LUANG",
		"province_id" : 10
	},
	{
		"id" : 1035,
		"name" : "จอมทอง",
		"name_en" : "CHOM THONG",
		"province_id" : 10
	},
	{
		"id" : 1036,
		"name" : "ดอนเมือง",
		"name_en" : "DON MUEANG",
		"province_id" : 10
	},
	{
		"id" : 1037,
		"name" : "ราชเทวี",
		"name_en" : "RATCHATHEWI",
		"province_id" : 10
	},
	{
		"id" : 1038,
		"name" : "ลาดพร้าว",
		"name_en" : "LAT PHRAO",
		"province_id" : 10
	},
	{
		"id" : 1039,
		"name" : "วัฒนา",
		"name_en" : "WATTHANA",
		"province_id" : 10
	},
	{
		"id" : 1040,
		"name" : "บางแค",
		"name_en" : "BANG KHAE",
		"province_id" : 10
	},
	{
		"id" : 1041,
		"name" : "หลักสี่",
		"name_en" : "LAK SI",
		"province_id" : 10
	},
	{
		"id" : 1042,
		"name" : "สายไหม",
		"name_en" : "SAI MAI",
		"province_id" : 10
	},
	{
		"id" : 1043,
		"name" : "คันนายาว",
		"name_en" : "KHAN NA YAO",
		"province_id" : 10
	},
	{
		"id" : 1044,
		"name" : "สะพานสูง",
		"name_en" : "SAPHAN SUNG",
		"province_id" : 10
	},
	{
		"id" : 1045,
		"name" : "วังทองหลาง",
		"name_en" : "WANG THONGLANG",
		"province_id" : 10
	},
	{
		"id" : 1046,
		"name" : "คลองสามวา",
		"name_en" : "KHLONG SAM WA",
		"province_id" : 10
	},
	{
		"id" : 1047,
		"name" : "บางนา",
		"name_en" : "BANG NA",
		"province_id" : 10
	},
	{
		"id" : 1048,
		"name" : "ทวีวัฒนา",
		"name_en" : "THAWI WATTHANA",
		"province_id" : 10
	},
	{
		"id" : 1049,
		"name" : "ทุ่งครุ",
		"name_en" : "THUNG KHRU",
		"province_id" : 10
	},
	{
		"id" : 1050,
		"name" : "บางบอน",
		"name_en" : "BANG BON",
		"province_id" : 10
	},
	{
		"id" : 1101,
		"name" : "เมืองสมุทรปราการ",
		"name_en" : "MUEANG SAMUT PRAKAN",
		"province_id" : 11
	},
	{
		"id" : 1102,
		"name" : "บางบ่อ",
		"name_en" : "BANG BO",
		"province_id" : 11
	},
	{
		"id" : 1103,
		"name" : "บางพลี",
		"name_en" : "BANG PHLI",
		"province_id" : 11
	},
	{
		"id" : 1104,
		"name" : "พระประแดง",
		"name_en" : "PHRA PRADAENG",
		"province_id" : 11
	},
	{
		"id" : 1105,
		"name" : "พระสมุทรเจดีย์",
		"name_en" : "PHRA SAMUT CHEDI",
		"province_id" : 11
	},
	{
		"id" : 1106,
		"name" : "บางเสาธง",
		"name_en" : "BANG SAO THONG",
		"province_id" : 11
	},
	{
		"id" : 1201,
		"name" : "เมืองนนทบุรี",
		"name_en" : "MUEANG NONTHABURI",
		"province_id" : 12
	},
	{
		"id" : 1202,
		"name" : "บางกรวย",
		"name_en" : "BANG KRUAI",
		"province_id" : 12
	},
	{
		"id" : 1203,
		"name" : "บางใหญ่",
		"name_en" : "BANG YAI",
		"province_id" : 12
	},
	{
		"id" : 1204,
		"name" : "บางบัวทอง",
		"name_en" : "BANG BUA THONG",
		"province_id" : 12
	},
	{
		"id" : 1205,
		"name" : "ไทรน้อย",
		"name_en" : "SAI NOI",
		"province_id" : 12
	},
	{
		"id" : 1206,
		"name" : "ปากเกร็ด",
		"name_en" : "PAK KRET",
		"province_id" : 12
	},
	{
		"id" : 1301,
		"name" : "เมืองปทุมธานี",
		"name_en" : "MUEANG PATHUM THANI",
		"province_id" : 13
	},
	{
		"id" : 1302,
		"name" : "คลองหลวง",
		"name_en" : "KHLONG LUANG",
		"province_id" : 13
	},
	{
		"id" : 1303,
		"name" : "ธัญบุรี",
		"name_en" : "THANYABURI",
		"province_id" : 13
	},
	{
		"id" : 1304,
		"name" : "หนองเสือ",
		"name_en" : "NONG SUEA",
		"province_id" : 13
	},
	{
		"id" : 1305,
		"name" : "ลาดหลุมแก้ว",
		"name_en" : "LAT LUM KAEO",
		"province_id" : 13
	},
	{
		"id" : 1306,
		"name" : "ลำลูกกา",
		"name_en" : "LAM LUK KA",
		"province_id" : 13
	},
	{
		"id" : 1307,
		"name" : "สามโคก",
		"name_en" : "SAM KHOK",
		"province_id" : 13
	},
	{
		"id" : 1401,
		"name" : "พระนครศรีอยุธยา",
		"name_en" : "PHRA NAKHON SI AYUTTHAYA",
		"province_id" : 14
	},
	{
		"id" : 1402,
		"name" : "ท่าเรือ",
		"name_en" : "THA RUEA",
		"province_id" : 14
	},
	{
		"id" : 1403,
		"name" : "นครหลวง",
		"name_en" : "NAKHON LUANG",
		"province_id" : 14
	},
	{
		"id" : 1404,
		"name" : "บางไทร",
		"name_en" : "BANG SAI",
		"province_id" : 14
	},
	{
		"id" : 1405,
		"name" : "บางบาล",
		"name_en" : "BANG BAN",
		"province_id" : 14
	},
	{
		"id" : 1406,
		"name" : "บางปะอิน",
		"name_en" : "BANG PA-IN",
		"province_id" : 14
	},
	{
		"id" : 1407,
		"name" : "บางปะหัน",
		"name_en" : "BANG PAHAN",
		"province_id" : 14
	},
	{
		"id" : 1408,
		"name" : "ผักไห่",
		"name_en" : "PHAK HAI",
		"province_id" : 14
	},
	{
		"id" : 1409,
		"name" : "ภาชี",
		"name_en" : "PHACHI",
		"province_id" : 14
	},
	{
		"id" : 1410,
		"name" : "ลาดบัวหลวง",
		"name_en" : "LAT BUA LUANG",
		"province_id" : 14
	},
	{
		"id" : 1411,
		"name" : "วังน้อย",
		"name_en" : "WANG NOI",
		"province_id" : 14
	},
	{
		"id" : 1412,
		"name" : "เสนา",
		"name_en" : "SENA",
		"province_id" : 14
	},
	{
		"id" : 1413,
		"name" : "บางซ้าย",
		"name_en" : "BANG SAI",
		"province_id" : 14
	},
	{
		"id" : 1414,
		"name" : "อุทัย",
		"name_en" : "UTHAI",
		"province_id" : 14
	},
	{
		"id" : 1415,
		"name" : "มหาราช",
		"name_en" : "MAHA RAT",
		"province_id" : 14
	},
	{
		"id" : 1416,
		"name" : "บ้านแพรก",
		"name_en" : "BAN PHRAEK",
		"province_id" : 14
	},
	{
		"id" : 1501,
		"name" : "เมืองอ่างทอง",
		"name_en" : "MUEANG ANG THONG",
		"province_id" : 15
	},
	{
		"id" : 1502,
		"name" : "ไชโย",
		"name_en" : "CHAIYO",
		"province_id" : 15
	},
	{
		"id" : 1503,
		"name" : "ป่าโมก",
		"name_en" : "PA MOK",
		"province_id" : 15
	},
	{
		"id" : 1504,
		"name" : "โพธิ์ทอง",
		"name_en" : "PHO THONG",
		"province_id" : 15
	},
	{
		"id" : 1505,
		"name" : "แสวงหา",
		"name_en" : "SAWAENG HA",
		"province_id" : 15
	},
	{
		"id" : 1506,
		"name" : "วิเศษชัยชาญ",
		"name_en" : "WISET CHAI CHAN",
		"province_id" : 15
	},
	{
		"id" : 1507,
		"name" : "สามโก้",
		"name_en" : "SAMKO",
		"province_id" : 15
	},
	{
		"id" : 1601,
		"name" : "เมืองลพบุรี",
		"name_en" : "MUEANG LOP BURI",
		"province_id" : 16
	},
	{
		"id" : 1602,
		"name" : "พัฒนานิคม",
		"name_en" : "PHATTHANA NIKHOM",
		"province_id" : 16
	},
	{
		"id" : 1603,
		"name" : "โคกสำโรง",
		"name_en" : "KHOK SAMRONG",
		"province_id" : 16
	},
	{
		"id" : 1604,
		"name" : "ชัยบาดาล",
		"name_en" : "CHAI BADAN",
		"province_id" : 16
	},
	{
		"id" : 1605,
		"name" : "ท่าวุ้ง",
		"name_en" : "THA WUNG",
		"province_id" : 16
	},
	{
		"id" : 1606,
		"name" : "บ้านหมี่",
		"name_en" : "BAN MI",
		"province_id" : 16
	},
	{
		"id" : 1607,
		"name" : "ท่าหลวง",
		"name_en" : "THA LUANG",
		"province_id" : 16
	},
	{
		"id" : 1608,
		"name" : "สระโบสถ์",
		"name_en" : "SA BOT",
		"province_id" : 16
	},
	{
		"id" : 1609,
		"name" : "โคกเจริญ",
		"name_en" : "KHOK CHAROEN",
		"province_id" : 16
	},
	{
		"id" : 1610,
		"name" : "ลำสนธิ",
		"name_en" : "LAM SONTHI",
		"province_id" : 16
	},
	{
		"id" : 1611,
		"name" : "หนองม่วง",
		"name_en" : "NONG MUANG",
		"province_id" : 16
	},
	{
		"id" : 1701,
		"name" : "เมืองสิงห์บุรี",
		"name_en" : "MUEANG SING BURI",
		"province_id" : 17
	},
	{
		"id" : 1702,
		"name" : "บางระจัน",
		"name_en" : "BANG RACHAN",
		"province_id" : 17
	},
	{
		"id" : 1703,
		"name" : "ค่ายบางระจัน",
		"name_en" : "KHAI BANG RACHAN",
		"province_id" : 17
	},
	{
		"id" : 1704,
		"name" : "พรหมบุรี",
		"name_en" : "PHROM BURI",
		"province_id" : 17
	},
	{
		"id" : 1705,
		"name" : "ท่าช้าง",
		"name_en" : "THA CHANG",
		"province_id" : 17
	},
	{
		"id" : 1706,
		"name" : "อินทร์บุรี",
		"name_en" : "IN BURI",
		"province_id" : 17
	},
	{
		"id" : 1801,
		"name" : "เมืองชัยนาท",
		"name_en" : "MUEANG CHAI NAT",
		"province_id" : 18
	},
	{
		"id" : 1802,
		"name" : "มโนรมย์",
		"name_en" : "MANOROM",
		"province_id" : 18
	},
	{
		"id" : 1803,
		"name" : "วัดสิงห์",
		"name_en" : "WAT SING",
		"province_id" : 18
	},
	{
		"id" : 1804,
		"name" : "สรรพยา",
		"name_en" : "SAPPHAYA",
		"province_id" : 18
	},
	{
		"id" : 1805,
		"name" : "สรรคบุรี",
		"name_en" : "SANKHABURI",
		"province_id" : 18
	},
	{
		"id" : 1806,
		"name" : "หันคา",
		"name_en" : "HANKHA",
		"province_id" : 18
	},
	{
		"id" : 1807,
		"name" : "หนองมะโมง",
		"name_en" : "NONG MAMONG",
		"province_id" : 18
	},
	{
		"id" : 1808,
		"name" : "เนินขาม",
		"name_en" : "NOEN KHAM",
		"province_id" : 18
	},
	{
		"id" : 1901,
		"name" : "เมืองสระบุรี",
		"name_en" : "MUEANG SARABURI",
		"province_id" : 19
	},
	{
		"id" : 1902,
		"name" : "แก่งคอย",
		"name_en" : "KAENG KHOI",
		"province_id" : 19
	},
	{
		"id" : 1903,
		"name" : "หนองแค",
		"name_en" : "NONG KHAE",
		"province_id" : 19
	},
	{
		"id" : 1904,
		"name" : "วิหารแดง",
		"name_en" : "WIHAN DAENG",
		"province_id" : 19
	},
	{
		"id" : 1905,
		"name" : "หนองแซง",
		"name_en" : "NONG SAENG",
		"province_id" : 19
	},
	{
		"id" : 1906,
		"name" : "บ้านหมอ",
		"name_en" : "BAN MO",
		"province_id" : 19
	},
	{
		"id" : 1907,
		"name" : "ดอนพุด",
		"name_en" : "DON PHUT",
		"province_id" : 19
	},
	{
		"id" : 1908,
		"name" : "หนองโดน",
		"name_en" : "NONG DON",
		"province_id" : 19
	},
	{
		"id" : 1909,
		"name" : "พระพุทธบาท",
		"name_en" : "PHRA PHUTTHABAT",
		"province_id" : 19
	},
	{
		"id" : 1910,
		"name" : "เสาไห้",
		"name_en" : "SAO HAI",
		"province_id" : 19
	},
	{
		"id" : 1911,
		"name" : "มวกเหล็ก",
		"name_en" : "MUAK LEK",
		"province_id" : 19
	},
	{
		"id" : 1912,
		"name" : "วังม่วง",
		"name_en" : "WANG MUANG",
		"province_id" : 19
	},
	{
		"id" : 1913,
		"name" : "เฉลิมพระเกียรติ",
		"name_en" : "CHALOEM PHRA KIAT",
		"province_id" : 19
	},
	{
		"id" : 2001,
		"name" : "เมืองชลบุรี",
		"name_en" : "MUEANG CHON BURI",
		"province_id" : 20
	},
	{
		"id" : 2002,
		"name" : "บ้านบึง",
		"name_en" : "BAN BUENG",
		"province_id" : 20
	},
	{
		"id" : 2003,
		"name" : "หนองใหญ่",
		"name_en" : "NONG YAI",
		"province_id" : 20
	},
	{
		"id" : 2004,
		"name" : "บางละมุง",
		"name_en" : "BANG LAMUNG",
		"province_id" : 20
	},
	{
		"id" : 2005,
		"name" : "พานทอง",
		"name_en" : "PHAN THONG",
		"province_id" : 20
	},
	{
		"id" : 2006,
		"name" : "พนัสนิคม",
		"name_en" : "PHANAT NIKHOM",
		"province_id" : 20
	},
	{
		"id" : 2007,
		"name" : "ศรีราชา",
		"name_en" : "SI RACHA",
		"province_id" : 20
	},
	{
		"id" : 2008,
		"name" : "เกาะสีชัง",
		"name_en" : "KO SICHANG",
		"province_id" : 20
	},
	{
		"id" : 2009,
		"name" : "สัตหีบ",
		"name_en" : "SATTAHIP",
		"province_id" : 20
	},
	{
		"id" : 2010,
		"name" : "บ่อทอง",
		"name_en" : "BO THONG",
		"province_id" : 20
	},
	{
		"id" : 2011,
		"name" : "เกาะจันทร์",
		"name_en" : "KO CHAN",
		"province_id" : 20
	},
	{
		"id" : 2101,
		"name" : "เมืองระยอง",
		"name_en" : "MUEANG RAYONG",
		"province_id" : 21
	},
	{
		"id" : 2102,
		"name" : "บ้านฉาง",
		"name_en" : "BAN CHANG",
		"province_id" : 21
	},
	{
		"id" : 2103,
		"name" : "แกลง",
		"name_en" : "KLAENG",
		"province_id" : 21
	},
	{
		"id" : 2104,
		"name" : "วังจันทร์",
		"name_en" : "WANG CHAN",
		"province_id" : 21
	},
	{
		"id" : 2105,
		"name" : "บ้านค่าย",
		"name_en" : "BAN KHAI",
		"province_id" : 21
	},
	{
		"id" : 2106,
		"name" : "ปลวกแดง",
		"name_en" : "PLUAK DAENG",
		"province_id" : 21
	},
	{
		"id" : 2107,
		"name" : "เขาชะเมา",
		"name_en" : "KHAO CHAMAO",
		"province_id" : 21
	},
	{
		"id" : 2108,
		"name" : "นิคมพัฒนา",
		"name_en" : "NIKHOM PHATTHANA",
		"province_id" : 21
	},
	{
		"id" : 2201,
		"name" : "เมืองจันทบุรี",
		"name_en" : "MUEANG CHANTHABURI",
		"province_id" : 22
	},
	{
		"id" : 2202,
		"name" : "ขลุง",
		"name_en" : "KHLUNG",
		"province_id" : 22
	},
	{
		"id" : 2203,
		"name" : "ท่าใหม่",
		"name_en" : "THA MAI",
		"province_id" : 22
	},
	{
		"id" : 2204,
		"name" : "โป่งน้ำร้อน",
		"name_en" : "PONG NAM RON",
		"province_id" : 22
	},
	{
		"id" : 2205,
		"name" : "มะขาม",
		"name_en" : "MAKHAM",
		"province_id" : 22
	},
	{
		"id" : 2206,
		"name" : "แหลมสิงห์",
		"name_en" : "LAEM SING",
		"province_id" : 22
	},
	{
		"id" : 2207,
		"name" : "สอยดาว",
		"name_en" : "SOI DAO",
		"province_id" : 22
	},
	{
		"id" : 2208,
		"name" : "แก่งหางแมว",
		"name_en" : "KAENG HANG MAEO",
		"province_id" : 22
	},
	{
		"id" : 2209,
		"name" : "นายายอาม",
		"name_en" : "NA YAI AM",
		"province_id" : 22
	},
	{
		"id" : 2210,
		"name" : "เขาคิชฌกูฏ",
		"name_en" : "KHOA KHITCHAKUT",
		"province_id" : 22
	},
	{
		"id" : 2301,
		"name" : "เมืองตราด",
		"name_en" : "MUEANG TRAT",
		"province_id" : 23
	},
	{
		"id" : 2302,
		"name" : "คลองใหญ่",
		"name_en" : "KHLONG YAI",
		"province_id" : 23
	},
	{
		"id" : 2303,
		"name" : "เขาสมิง",
		"name_en" : "KHAO SAMING",
		"province_id" : 23
	},
	{
		"id" : 2304,
		"name" : "บ่อไร่",
		"name_en" : "BO RAI",
		"province_id" : 23
	},
	{
		"id" : 2305,
		"name" : "แหลมงอบ",
		"name_en" : "LAEM NGOP",
		"province_id" : 23
	},
	{
		"id" : 2306,
		"name" : "เกาะกูด",
		"name_en" : "KO KUT",
		"province_id" : 23
	},
	{
		"id" : 2307,
		"name" : "เกาะช้าง",
		"name_en" : "KO CHANG",
		"province_id" : 23
	},
	{
		"id" : 2401,
		"name" : "เมืองฉะเชิงเทรา",
		"name_en" : "MUEANG CHACHOENGSAO",
		"province_id" : 24
	},
	{
		"id" : 2402,
		"name" : "บางคล้า",
		"name_en" : "BANG KHLA",
		"province_id" : 24
	},
	{
		"id" : 2403,
		"name" : "บางน้ำเปรี้ยว",
		"name_en" : "BANG NAM PRIAO",
		"province_id" : 24
	},
	{
		"id" : 2404,
		"name" : "บางปะกง",
		"name_en" : "BANG PAKONG",
		"province_id" : 24
	},
	{
		"id" : 2405,
		"name" : "บ้านโพธิ์",
		"name_en" : "BAN PHO",
		"province_id" : 24
	},
	{
		"id" : 2406,
		"name" : "พนมสารคาม",
		"name_en" : "PHANOM SARAKHAM",
		"province_id" : 24
	},
	{
		"id" : 2407,
		"name" : "ราชสาส์น",
		"name_en" : "RATCHASAN",
		"province_id" : 24
	},
	{
		"id" : 2408,
		"name" : "สนามชัยเขต",
		"name_en" : "SANAM CHAI KHET",
		"province_id" : 24
	},
	{
		"id" : 2409,
		"name" : "แปลงยาว",
		"name_en" : "PLAENG YAO",
		"province_id" : 24
	},
	{
		"id" : 2410,
		"name" : "ท่าตะเกียบ",
		"name_en" : "THA TAKIAP",
		"province_id" : 24
	},
	{
		"id" : 2411,
		"name" : "คลองเขื่อน",
		"name_en" : "KHLONG KHUEAN",
		"province_id" : 24
	},
	{
		"id" : 2501,
		"name" : "เมืองปราจีนบุรี",
		"name_en" : "MUEANG PRACHIN BURI",
		"province_id" : 25
	},
	{
		"id" : 2502,
		"name" : "กบินทร์บุรี",
		"name_en" : "KABIN BURI",
		"province_id" : 25
	},
	{
		"id" : 2503,
		"name" : "นาดี",
		"name_en" : "NA DI",
		"province_id" : 25
	},
	{
		"id" : 2506,
		"name" : "บ้านสร้าง",
		"name_en" : "BAN SANG",
		"province_id" : 25
	},
	{
		"id" : 2507,
		"name" : "ประจันตคาม",
		"name_en" : "PRACHANTAKHAM",
		"province_id" : 25
	},
	{
		"id" : 2508,
		"name" : "ศรีมหาโพธิ",
		"name_en" : "SI MAHA PHOT",
		"province_id" : 25
	},
	{
		"id" : 2509,
		"name" : "ศรีมโหสถ",
		"name_en" : "SI MAHOSOT",
		"province_id" : 25
	},
	{
		"id" : 2601,
		"name" : "เมืองนครนายก",
		"name_en" : "MUEANG NAKHON NAYOK",
		"province_id" : 26
	},
	{
		"id" : 2602,
		"name" : "ปากพลี",
		"name_en" : "PAK PHLI",
		"province_id" : 26
	},
	{
		"id" : 2603,
		"name" : "บ้านนา",
		"name_en" : "BAN NA",
		"province_id" : 26
	},
	{
		"id" : 2604,
		"name" : "องครักษ์",
		"name_en" : "ONGKHARAK",
		"province_id" : 26
	},
	{
		"id" : 2701,
		"name" : "เมืองสระแก้ว",
		"name_en" : "MUEANG SA KAEO",
		"province_id" : 27
	},
	{
		"id" : 2702,
		"name" : "คลองหาด",
		"name_en" : "KHLONG HAT",
		"province_id" : 27
	},
	{
		"id" : 2703,
		"name" : "ตาพระยา",
		"name_en" : "TA PHRAYA",
		"province_id" : 27
	},
	{
		"id" : 2704,
		"name" : "วังน้ำเย็น",
		"name_en" : "WANG NAM YEN",
		"province_id" : 27
	},
	{
		"id" : 2705,
		"name" : "วัฒนานคร",
		"name_en" : "WATTHANA NAKHON",
		"province_id" : 27
	},
	{
		"id" : 2706,
		"name" : "อรัญประเทศ",
		"name_en" : "ARANYAPRATHET",
		"province_id" : 27
	},
	{
		"id" : 2707,
		"name" : "เขาฉกรรจ์",
		"name_en" : "KHAO CHAKAN",
		"province_id" : 27
	},
	{
		"id" : 2708,
		"name" : "โคกสูง",
		"name_en" : "KHOK SUNG",
		"province_id" : 27
	},
	{
		"id" : 2709,
		"name" : "วังสมบูรณ์",
		"name_en" : "WANG SOMBUN",
		"province_id" : 27
	},
	{
		"id" : 3001,
		"name" : "เมืองนครราชสีมา",
		"name_en" : "MUEANG NAKHON RATCHASIMA",
		"province_id" : 30
	},
	{
		"id" : 3002,
		"name" : "ครบุรี",
		"name_en" : "KHON BURI",
		"province_id" : 30
	},
	{
		"id" : 3003,
		"name" : "เสิงสาง",
		"name_en" : "SOENG SANG",
		"province_id" : 30
	},
	{
		"id" : 3004,
		"name" : "คง",
		"name_en" : "KHONG",
		"province_id" : 30
	},
	{
		"id" : 3005,
		"name" : "บ้านเหลื่อม",
		"name_en" : "BAN LUEAM",
		"province_id" : 30
	},
	{
		"id" : 3006,
		"name" : "จักราช",
		"name_en" : "CHAKKARAT",
		"province_id" : 30
	},
	{
		"id" : 3007,
		"name" : "โชคชัย",
		"name_en" : "CHOK CHAI",
		"province_id" : 30
	},
	{
		"id" : 3008,
		"name" : "ด่านขุนทด",
		"name_en" : "DAN KHUN THOT",
		"province_id" : 30
	},
	{
		"id" : 3009,
		"name" : "โนนไทย",
		"name_en" : "NON THAI",
		"province_id" : 30
	},
	{
		"id" : 3010,
		"name" : "โนนสูง",
		"name_en" : "NON SUNG",
		"province_id" : 30
	},
	{
		"id" : 3011,
		"name" : "ขามสะแกแสง",
		"name_en" : "KHAM SAKAESAENG",
		"province_id" : 30
	},
	{
		"id" : 3012,
		"name" : "บัวใหญ่",
		"name_en" : "BUA YAI",
		"province_id" : 30
	},
	{
		"id" : 3013,
		"name" : "ประทาย",
		"name_en" : "PRATHAI",
		"province_id" : 30
	},
	{
		"id" : 3014,
		"name" : "ปักธงชัย",
		"name_en" : "PAK THONG CHAI",
		"province_id" : 30
	},
	{
		"id" : 3015,
		"name" : "พิมาย",
		"name_en" : "PHIMAI",
		"province_id" : 30
	},
	{
		"id" : 3016,
		"name" : "ห้วยแถลง",
		"name_en" : "HUAI THALAENG",
		"province_id" : 30
	},
	{
		"id" : 3017,
		"name" : "ชุมพวง",
		"name_en" : "CHUM PHUANG",
		"province_id" : 30
	},
	{
		"id" : 3018,
		"name" : "สูงเนิน",
		"name_en" : "SUNG NOEN",
		"province_id" : 30
	},
	{
		"id" : 3019,
		"name" : "ขามทะเลสอ",
		"name_en" : "KHAM THALE SO",
		"province_id" : 30
	},
	{
		"id" : 3020,
		"name" : "สีคิ้ว",
		"name_en" : "SIKHIO",
		"province_id" : 30
	},
	{
		"id" : 3021,
		"name" : "ปากช่อง",
		"name_en" : "PAK CHONG",
		"province_id" : 30
	},
	{
		"id" : 3022,
		"name" : "หนองบุญมาก",
		"name_en" : "NONG BUNNAK",
		"province_id" : 30
	},
	{
		"id" : 3023,
		"name" : "แก้งสนามนาง",
		"name_en" : "KAENG SANAM NANG",
		"province_id" : 30
	},
	{
		"id" : 3024,
		"name" : "โนนแดง",
		"name_en" : "NON DAENG",
		"province_id" : 30
	},
	{
		"id" : 3025,
		"name" : "วังน้ำเขียว",
		"name_en" : "WANG NAM KHIAO",
		"province_id" : 30
	},
	{
		"id" : 3026,
		"name" : "เทพารักษ์",
		"name_en" : "THEPHARAK",
		"province_id" : 30
	},
	{
		"id" : 3027,
		"name" : "เมืองยาง",
		"name_en" : "MUEANG YANG",
		"province_id" : 30
	},
	{
		"id" : 3028,
		"name" : "พระทองคำ",
		"name_en" : "PHRA THONG KHAM",
		"province_id" : 30
	},
	{
		"id" : 3029,
		"name" : "ลำทะเมนชัย",
		"name_en" : "LAM THAMENCHAI",
		"province_id" : 30
	},
	{
		"id" : 3030,
		"name" : "บัวลาย",
		"name_en" : "BUA LAI",
		"province_id" : 30
	},
	{
		"id" : 3031,
		"name" : "สีดา",
		"name_en" : "SIDA",
		"province_id" : 30
	},
	{
		"id" : 3032,
		"name" : "เฉลิมพระเกียรติ",
		"name_en" : "CHALOEM PHRA KIAT",
		"province_id" : 30
	},
	{
		"id" : 3101,
		"name" : "เมืองบุรีรัมย์",
		"name_en" : "MUEANG BURI RAM",
		"province_id" : 31
	},
	{
		"id" : 3102,
		"name" : "คูเมือง",
		"name_en" : "KHU MUEANG",
		"province_id" : 31
	},
	{
		"id" : 3103,
		"name" : "กระสัง",
		"name_en" : "KRASANG",
		"province_id" : 31
	},
	{
		"id" : 3104,
		"name" : "นางรอง",
		"name_en" : "NANG RONG",
		"province_id" : 31
	},
	{
		"id" : 3105,
		"name" : "หนองกี่",
		"name_en" : "NONG KI",
		"province_id" : 31
	},
	{
		"id" : 3106,
		"name" : "ละหานทราย",
		"name_en" : "LAHAN SAI",
		"province_id" : 31
	},
	{
		"id" : 3107,
		"name" : "ประโคนชัย",
		"name_en" : "PRAKHON CHAI",
		"province_id" : 31
	},
	{
		"id" : 3108,
		"name" : "บ้านกรวด",
		"name_en" : "BAN KRUAT",
		"province_id" : 31
	},
	{
		"id" : 3109,
		"name" : "พุทไธสง",
		"name_en" : "PHUTTHAISONG",
		"province_id" : 31
	},
	{
		"id" : 3110,
		"name" : "ลำปลายมาศ",
		"name_en" : "LAM PLAI MAT",
		"province_id" : 31
	},
	{
		"id" : 3111,
		"name" : "สตึก",
		"name_en" : "SATUEK",
		"province_id" : 31
	},
	{
		"id" : 3112,
		"name" : "ปะคำ",
		"name_en" : "PAKHAM",
		"province_id" : 31
	},
	{
		"id" : 3113,
		"name" : "นาโพธิ์",
		"name_en" : "NA PHO",
		"province_id" : 31
	},
	{
		"id" : 3114,
		"name" : "หนองหงส์",
		"name_en" : "NONG HONG",
		"province_id" : 31
	},
	{
		"id" : 3115,
		"name" : "พลับพลาชัย",
		"name_en" : "PHLAPPHLA CHAI",
		"province_id" : 31
	},
	{
		"id" : 3116,
		"name" : "ห้วยราช",
		"name_en" : "HUAI RAT",
		"province_id" : 31
	},
	{
		"id" : 3117,
		"name" : "โนนสุวรรณ",
		"name_en" : "NON SUWAN",
		"province_id" : 31
	},
	{
		"id" : 3118,
		"name" : "ชำนิ",
		"name_en" : "CHAMNI",
		"province_id" : 31
	},
	{
		"id" : 3119,
		"name" : "บ้านใหม่ไชยพจน์",
		"name_en" : "BAN MAI CHAIYAPHOT",
		"province_id" : 31
	},
	{
		"id" : 3120,
		"name" : "โนนดินแดง",
		"name_en" : "DIN DAENG",
		"province_id" : 31
	},
	{
		"id" : 3121,
		"name" : "บ้านด่าน",
		"name_en" : "BAN DAN",
		"province_id" : 31
	},
	{
		"id" : 3122,
		"name" : "แคนดง",
		"name_en" : "KHAEN DONG",
		"province_id" : 31
	},
	{
		"id" : 3123,
		"name" : "เฉลิมพระเกียรติ",
		"name_en" : "CHALOEM PHRA KIAT",
		"province_id" : 31
	},
	{
		"id" : 3201,
		"name" : "เมืองสุรินทร์",
		"name_en" : "MUEANG SURIN",
		"province_id" : 32
	},
	{
		"id" : 3202,
		"name" : "ชุมพลบุรี",
		"name_en" : "CHUMPHON BURI",
		"province_id" : 32
	},
	{
		"id" : 3203,
		"name" : "ท่าตูม",
		"name_en" : "THA TUM",
		"province_id" : 32
	},
	{
		"id" : 3204,
		"name" : "จอมพระ",
		"name_en" : "CHOM PHRA",
		"province_id" : 32
	},
	{
		"id" : 3205,
		"name" : "ปราสาท",
		"name_en" : "PRASAT",
		"province_id" : 32
	},
	{
		"id" : 3206,
		"name" : "กาบเชิง",
		"name_en" : "KAP CHOENG",
		"province_id" : 32
	},
	{
		"id" : 3207,
		"name" : "รัตนบุรี",
		"name_en" : "RATTANABURI",
		"province_id" : 32
	},
	{
		"id" : 3208,
		"name" : "สนม",
		"name_en" : "SANOM",
		"province_id" : 32
	},
	{
		"id" : 3209,
		"name" : "ศีขรภูมิ",
		"name_en" : "SIKHORAPHUM",
		"province_id" : 32
	},
	{
		"id" : 3210,
		"name" : "สังขะ",
		"name_en" : "SANGKHA",
		"province_id" : 32
	},
	{
		"id" : 3211,
		"name" : "ลำดวน",
		"name_en" : "LAMDUAN",
		"province_id" : 32
	},
	{
		"id" : 3212,
		"name" : "สำโรงทาบ",
		"name_en" : "SAMRONG THAP",
		"province_id" : 32
	},
	{
		"id" : 3213,
		"name" : "บัวเชด",
		"name_en" : "BUACHET",
		"province_id" : 32
	},
	{
		"id" : 3214,
		"name" : "พนมดงรัก",
		"name_en" : "PHANOM DONG RAK",
		"province_id" : 32
	},
	{
		"id" : 3215,
		"name" : "ศรีณรงค์",
		"name_en" : "SI NARONG",
		"province_id" : 32
	},
	{
		"id" : 3216,
		"name" : "เขวาสินรินทร์",
		"name_en" : "KHWAO SINARIN",
		"province_id" : 32
	},
	{
		"id" : 3217,
		"name" : "โนนนารายณ์",
		"name_en" : "NON NARAI",
		"province_id" : 32
	},
	{
		"id" : 3301,
		"name" : "เมืองศรีสะเกษ",
		"name_en" : "MUEANG SI SA KET",
		"province_id" : 33
	},
	{
		"id" : 3302,
		"name" : "ยางชุมน้อย",
		"name_en" : "YANG CHUM NOI",
		"province_id" : 33
	},
	{
		"id" : 3303,
		"name" : "กันทรารมย์",
		"name_en" : "KANTHARAROM",
		"province_id" : 33
	},
	{
		"id" : 3304,
		"name" : "กันทรลักษ์",
		"name_en" : "KANTHARALAK",
		"province_id" : 33
	},
	{
		"id" : 3305,
		"name" : "ขุขันธ์",
		"name_en" : "KHUKHAN",
		"province_id" : 33
	},
	{
		"id" : 3306,
		"name" : "ไพรบึง",
		"name_en" : "PHRAI BUENG",
		"province_id" : 33
	},
	{
		"id" : 3307,
		"name" : "ปรางค์กู่",
		"name_en" : "PRANG KU",
		"province_id" : 33
	},
	{
		"id" : 3308,
		"name" : "ขุนหาญ",
		"name_en" : "KHUN HAN",
		"province_id" : 33
	},
	{
		"id" : 3309,
		"name" : "ราษีไศล",
		"name_en" : "RASI SALAI",
		"province_id" : 33
	},
	{
		"id" : 3310,
		"name" : "อุทุมพรพิสัย",
		"name_en" : "UTHUMPHON PHISAI",
		"province_id" : 33
	},
	{
		"id" : 3311,
		"name" : "บึงบูรพ์",
		"name_en" : "BUENG BUN",
		"province_id" : 33
	},
	{
		"id" : 3312,
		"name" : "ห้วยทับทัน",
		"name_en" : "HUAI THAP THAN",
		"province_id" : 33
	},
	{
		"id" : 3313,
		"name" : "โนนคูณ",
		"name_en" : "NON KHUN",
		"province_id" : 33
	},
	{
		"id" : 3314,
		"name" : "ศรีรัตนะ",
		"name_en" : "SI RATTANA",
		"province_id" : 33
	},
	{
		"id" : 3315,
		"name" : "น้ำเกลี้ยง",
		"name_en" : "SI RATTANA",
		"province_id" : 33
	},
	{
		"id" : 3316,
		"name" : "วังหิน",
		"name_en" : "WANG HIN",
		"province_id" : 33
	},
	{
		"id" : 3317,
		"name" : "ภูสิงห์",
		"name_en" : "PHU SING",
		"province_id" : 33
	},
	{
		"id" : 3318,
		"name" : "เมืองจันทร์",
		"name_en" : "MUEANG CHAN",
		"province_id" : 33
	},
	{
		"id" : 3319,
		"name" : "เบญจลักษ์",
		"name_en" : "BENCHALAK",
		"province_id" : 33
	},
	{
		"id" : 3320,
		"name" : "พยุห์",
		"name_en" : "PHAYU",
		"province_id" : 33
	},
	{
		"id" : 3321,
		"name" : "โพธิ์ศรีสุวรรณ",
		"name_en" : "PHO SI SUWAN",
		"province_id" : 33
	},
	{
		"id" : 3322,
		"name" : "ศิลาลาด",
		"name_en" : "SILA LAT",
		"province_id" : 33
	},
	{
		"id" : 3401,
		"name" : "เมืองอุบลราชธานี",
		"name_en" : "MUEANG UBON RATCHATHANI",
		"province_id" : 34
	},
	{
		"id" : 3402,
		"name" : "ศรีเมืองใหม่",
		"name_en" : "SI MUEANG MAI",
		"province_id" : 34
	},
	{
		"id" : 3403,
		"name" : "โขงเจียม",
		"name_en" : "KHONG CHIAM",
		"province_id" : 34
	},
	{
		"id" : 3404,
		"name" : "เขื่องใน",
		"name_en" : "KHUEANG NAI",
		"province_id" : 34
	},
	{
		"id" : 3405,
		"name" : "เขมราฐ",
		"name_en" : "KHEMARAT",
		"province_id" : 34
	},
	{
		"id" : 3407,
		"name" : "เดชอุดม",
		"name_en" : "DET UDOM",
		"province_id" : 34
	},
	{
		"id" : 3408,
		"name" : "นาจะหลวย",
		"name_en" : "NA CHALUAI",
		"province_id" : 34
	},
	{
		"id" : 3409,
		"name" : "น้ำยืน",
		"name_en" : "NAM YUEN",
		"province_id" : 34
	},
	{
		"id" : 3410,
		"name" : "บุณฑริก",
		"name_en" : "BUNTHARIK",
		"province_id" : 34
	},
	{
		"id" : 3411,
		"name" : "ตระการพืชผล",
		"name_en" : "TRAKAN PHUET PHON",
		"province_id" : 34
	},
	{
		"id" : 3412,
		"name" : "กุดข้าวปุ้น",
		"name_en" : "KUT KHAOPUN",
		"province_id" : 34
	},
	{
		"id" : 3414,
		"name" : "ม่วงสามสิบ",
		"name_en" : "MUANG SAM SIP",
		"province_id" : 34
	},
	{
		"id" : 3415,
		"name" : "วารินชำราบ",
		"name_en" : "WARIN CHAMRAP",
		"province_id" : 34
	},
	{
		"id" : 3419,
		"name" : "พิบูลมังสาหาร",
		"name_en" : "PHIBUN MANGSAHAN",
		"province_id" : 34
	},
	{
		"id" : 3420,
		"name" : "ตาลสุม",
		"name_en" : "TAN SUM",
		"province_id" : 34
	},
	{
		"id" : 3421,
		"name" : "โพธิ์ไทร",
		"name_en" : "PHO SAI",
		"province_id" : 34
	},
	{
		"id" : 3422,
		"name" : "สำโรง",
		"name_en" : "SAMRONG",
		"province_id" : 34
	},
	{
		"id" : 3424,
		"name" : "ดอนมดแดง",
		"name_en" : "DON MOT DAENG",
		"province_id" : 34
	},
	{
		"id" : 3425,
		"name" : "สิรินธร",
		"name_en" : "SIRINDHORN",
		"province_id" : 34
	},
	{
		"id" : 3426,
		"name" : "ทุ่งศรีอุดม",
		"name_en" : "THUNG SI UDOM",
		"province_id" : 34
	},
	{
		"id" : 3429,
		"name" : "นาเยีย",
		"name_en" : "NA YIA",
		"province_id" : 34
	},
	{
		"id" : 3430,
		"name" : "นาตาล",
		"name_en" : "NA TAN",
		"province_id" : 34
	},
	{
		"id" : 3431,
		"name" : "เหล่าเสือโก้ก",
		"name_en" : "LAO SUEA KOK",
		"province_id" : 34
	},
	{
		"id" : 3432,
		"name" : "สว่างวีระวงศ์",
		"name_en" : "SAWANG WIRAWONG",
		"province_id" : 34
	},
	{
		"id" : 3433,
		"name" : "น้ำขุ่น",
		"name_en" : "NAM KHUN",
		"province_id" : 34
	},
	{
		"id" : 3501,
		"name" : "เมืองยโสธร",
		"name_en" : "MUEANG YASOTHON",
		"province_id" : 35
	},
	{
		"id" : 3502,
		"name" : "ทรายมูล",
		"name_en" : "SAI MUN",
		"province_id" : 35
	},
	{
		"id" : 3503,
		"name" : "กุดชุม",
		"name_en" : "KUT CHUM",
		"province_id" : 35
	},
	{
		"id" : 3504,
		"name" : "คำเขื่อนแก้ว",
		"name_en" : "KHAM KHUEAN KAEO",
		"province_id" : 35
	},
	{
		"id" : 3505,
		"name" : "ป่าติ้ว",
		"name_en" : "PA TIO",
		"province_id" : 35
	},
	{
		"id" : 3506,
		"name" : "มหาชนะชัย",
		"name_en" : "MAHA CHANA CHAI",
		"province_id" : 35
	},
	{
		"id" : 3507,
		"name" : "ค้อวัง",
		"name_en" : "KHO WANG",
		"province_id" : 35
	},
	{
		"id" : 3508,
		"name" : "เลิงนกทา",
		"name_en" : "LOENG NOK THA",
		"province_id" : 35
	},
	{
		"id" : 3509,
		"name" : "ไทยเจริญ",
		"name_en" : "THAI CHAROEN",
		"province_id" : 35
	},
	{
		"id" : 3601,
		"name" : "เมืองชัยภูมิ",
		"name_en" : "MUEANG CHAIYAPHUM",
		"province_id" : 36
	},
	{
		"id" : 3602,
		"name" : "บ้านเขว้า",
		"name_en" : "BAN KHWAO",
		"province_id" : 36
	},
	{
		"id" : 3603,
		"name" : "คอนสวรรค์",
		"name_en" : "KHON SAWAN",
		"province_id" : 36
	},
	{
		"id" : 3604,
		"name" : "เกษตรสมบูรณ์",
		"name_en" : "KASET SOMBUN",
		"province_id" : 36
	},
	{
		"id" : 3605,
		"name" : "หนองบัวแดง",
		"name_en" : "NONG BUA DAENG",
		"province_id" : 36
	},
	{
		"id" : 3606,
		"name" : "จัตุรัส",
		"name_en" : "CHATTURAT",
		"province_id" : 36
	},
	{
		"id" : 3607,
		"name" : "บำเหน็จณรงค์",
		"name_en" : "BAMNET NARONG",
		"province_id" : 36
	},
	{
		"id" : 3608,
		"name" : "หนองบัวระเหว",
		"name_en" : "NONG BUA RAWE",
		"province_id" : 36
	},
	{
		"id" : 3609,
		"name" : "เทพสถิต",
		"name_en" : "THEP SATHIT",
		"province_id" : 36
	},
	{
		"id" : 3610,
		"name" : "ภูเขียว",
		"name_en" : "PHU KHIAO",
		"province_id" : 36
	},
	{
		"id" : 3611,
		"name" : "บ้านแท่น",
		"name_en" : "BAN THAEN",
		"province_id" : 36
	},
	{
		"id" : 3612,
		"name" : "แก้งคร้อ",
		"name_en" : "KAENG KHRO",
		"province_id" : 36
	},
	{
		"id" : 3613,
		"name" : "คอนสาร",
		"name_en" : "KHON SAN",
		"province_id" : 36
	},
	{
		"id" : 3614,
		"name" : "ภักดีชุมพล",
		"name_en" : "PHAKDI CHUMPHON",
		"province_id" : 36
	},
	{
		"id" : 3615,
		"name" : "เนินสง่า",
		"name_en" : "NOEN SA-NGA",
		"province_id" : 36
	},
	{
		"id" : 3616,
		"name" : "ซับใหญ่",
		"name_en" : "SAP YAI",
		"province_id" : 36
	},
	{
		"id" : 3701,
		"name" : "เมืองอำนาจเจริญ",
		"name_en" : "MUEANG AMNAT CHAROEN",
		"province_id" : 37
	},
	{
		"id" : 3702,
		"name" : "ชานุมาน",
		"name_en" : "CHANUMAN",
		"province_id" : 37
	},
	{
		"id" : 3703,
		"name" : "ปทุมราชวงศา",
		"name_en" : "PATHUM RATCHAWONGSA",
		"province_id" : 37
	},
	{
		"id" : 3704,
		"name" : "พนา",
		"name_en" : "PHANA",
		"province_id" : 37
	},
	{
		"id" : 3705,
		"name" : "เสนางคนิคม",
		"name_en" : "SENANGKHANIKHOM",
		"province_id" : 37
	},
	{
		"id" : 3706,
		"name" : "หัวตะพาน",
		"name_en" : "HUA TAPHAN",
		"province_id" : 37
	},
	{
		"id" : 3707,
		"name" : "ลืออำนาจ",
		"name_en" : "LUE AMNAT",
		"province_id" : 37
	},
	{
		"id" : 3801,
		"name" : "เมืองบึงกาฬ",
		"name_en" : "MUEANG BUENG KAN",
		"province_id" : 38
	},
	{
		"id" : 3802,
		"name" : "พรเจริญ",
		"name_en" : "PHON CHAROEN",
		"province_id" : 38
	},
	{
		"id" : 3803,
		"name" : "โซ่พิสัย",
		"name_en" : "SO PHISAI",
		"province_id" : 38
	},
	{
		"id" : 3804,
		"name" : "เซกา",
		"name_en" : "SEKA",
		"province_id" : 38
	},
	{
		"id" : 3805,
		"name" : "ปากคาด",
		"name_en" : "PAK KHAT",
		"province_id" : 38
	},
	{
		"id" : 3806,
		"name" : "บึงโขงหลง",
		"name_en" : "BUENG KHONG LONG",
		"province_id" : 38
	},
	{
		"id" : 3807,
		"name" : "ศรีวิไล",
		"name_en" : "SI WILAI",
		"province_id" : 38
	},
	{
		"id" : 3808,
		"name" : "บุ่งคล้า",
		"name_en" : "BUNG KHLA",
		"province_id" : 38
	},
	{
		"id" : 3901,
		"name" : "เมืองหนองบัวลำภู",
		"name_en" : "MUEANG NONG BUA LAM PHU",
		"province_id" : 39
	},
	{
		"id" : 3902,
		"name" : "นากลาง",
		"name_en" : "NA KLANG",
		"province_id" : 39
	},
	{
		"id" : 3903,
		"name" : "โนนสัง",
		"name_en" : "NON SANG",
		"province_id" : 39
	},
	{
		"id" : 3904,
		"name" : "ศรีบุญเรือง",
		"name_en" : "SI BUN RUEANG",
		"province_id" : 39
	},
	{
		"id" : 3905,
		"name" : "สุวรรณคูหา",
		"name_en" : "SUWANNAKHUHA",
		"province_id" : 39
	},
	{
		"id" : 3906,
		"name" : "นาวัง",
		"name_en" : "NA WANG",
		"province_id" : 39
	},
	{
		"id" : 4001,
		"name" : "เมืองขอนแก่น",
		"name_en" : "MUEANG KHON KAEN",
		"province_id" : 40
	},
	{
		"id" : 4002,
		"name" : "บ้านฝาง",
		"name_en" : "BAN FANG",
		"province_id" : 40
	},
	{
		"id" : 4003,
		"name" : "พระยืน",
		"name_en" : "PHRA YUEN",
		"province_id" : 40
	},
	{
		"id" : 4004,
		"name" : "หนองเรือ",
		"name_en" : "NONG RUEA",
		"province_id" : 40
	},
	{
		"id" : 4005,
		"name" : "ชุมแพ",
		"name_en" : "CHUM PHAE",
		"province_id" : 40
	},
	{
		"id" : 4006,
		"name" : "สีชมพู",
		"name_en" : "SI CHOMPHU",
		"province_id" : 40
	},
	{
		"id" : 4007,
		"name" : "น้ำพอง",
		"name_en" : "NAM PHONG",
		"province_id" : 40
	},
	{
		"id" : 4008,
		"name" : "อุบลรัตน์",
		"name_en" : "UBOLRATANA",
		"province_id" : 40
	},
	{
		"id" : 4009,
		"name" : "กระนวน",
		"name_en" : "KRANUAN",
		"province_id" : 40
	},
	{
		"id" : 4010,
		"name" : "บ้านไผ่",
		"name_en" : "BAN PHAI",
		"province_id" : 40
	},
	{
		"id" : 4011,
		"name" : "เปือยน้อย",
		"name_en" : "PUEAI NOI",
		"province_id" : 40
	},
	{
		"id" : 4012,
		"name" : "พล",
		"name_en" : "PHON",
		"province_id" : 40
	},
	{
		"id" : 4013,
		"name" : "แวงใหญ่",
		"name_en" : "WAENG YAI",
		"province_id" : 40
	},
	{
		"id" : 4014,
		"name" : "แวงน้อย",
		"name_en" : "WAENG NOI",
		"province_id" : 40
	},
	{
		"id" : 4015,
		"name" : "หนองสองห้อง",
		"name_en" : "NONG SONG HONG",
		"province_id" : 40
	},
	{
		"id" : 4016,
		"name" : "ภูเวียง",
		"name_en" : "PHU WIANG",
		"province_id" : 40
	},
	{
		"id" : 4017,
		"name" : "มัญจาคีรี",
		"name_en" : "MANCHA KHIRI",
		"province_id" : 40
	},
	{
		"id" : 4018,
		"name" : "ชนบท",
		"name_en" : "CHONNABOT",
		"province_id" : 40
	},
	{
		"id" : 4019,
		"name" : "เขาสวนกวาง",
		"name_en" : "KHAO SUAN KWANG",
		"province_id" : 40
	},
	{
		"id" : 4020,
		"name" : "ภูผาม่าน",
		"name_en" : "PHU PHA MAN",
		"province_id" : 40
	},
	{
		"id" : 4021,
		"name" : "ซำสูง",
		"name_en" : "SAM SUNG",
		"province_id" : 40
	},
	{
		"id" : 4022,
		"name" : "โคกโพธิ์ไชย",
		"name_en" : "KHOK PHO CHAI",
		"province_id" : 40
	},
	{
		"id" : 4023,
		"name" : "หนองนาคำ",
		"name_en" : "NONG NA KHAM",
		"province_id" : 40
	},
	{
		"id" : 4024,
		"name" : "บ้านแฮด",
		"name_en" : "BAN HAET",
		"province_id" : 40
	},
	{
		"id" : 4025,
		"name" : "โนนศิลา",
		"name_en" : "NON SILA",
		"province_id" : 40
	},
	{
		"id" : 4029,
		"name" : "เวียงเก่า",
		"name_en" : "WIANG KAO",
		"province_id" : 40
	},
	{
		"id" : 4101,
		"name" : "เมืองอุดรธานี",
		"name_en" : "MUEANG UDON THANI",
		"province_id" : 41
	},
	{
		"id" : 4102,
		"name" : "กุดจับ",
		"name_en" : "KUT CHAP",
		"province_id" : 41
	},
	{
		"id" : 4103,
		"name" : "หนองวัวซอ",
		"name_en" : "NONG WUA SO",
		"province_id" : 41
	},
	{
		"id" : 4104,
		"name" : "กุมภวาปี",
		"name_en" : "KUMPHAWAPI",
		"province_id" : 41
	},
	{
		"id" : 4105,
		"name" : "โนนสะอาด",
		"name_en" : "NON SA-AT",
		"province_id" : 41
	},
	{
		"id" : 4106,
		"name" : "หนองหาน",
		"name_en" : "NONG HAN",
		"province_id" : 41
	},
	{
		"id" : 4107,
		"name" : "ทุ่งฝน",
		"name_en" : "THUNG FON",
		"province_id" : 41
	},
	{
		"id" : 4108,
		"name" : "ไชยวาน",
		"name_en" : "CHAI WAN",
		"province_id" : 41
	},
	{
		"id" : 4109,
		"name" : "ศรีธาตุ",
		"name_en" : "SI THAT",
		"province_id" : 41
	},
	{
		"id" : 4110,
		"name" : "วังสามหมอ",
		"name_en" : "WANG SAM MO",
		"province_id" : 41
	},
	{
		"id" : 4111,
		"name" : "บ้านดุง",
		"name_en" : "BAN DUNG",
		"province_id" : 41
	},
	{
		"id" : 4117,
		"name" : "บ้านผือ",
		"name_en" : "BAN PHUE",
		"province_id" : 41
	},
	{
		"id" : 4118,
		"name" : "น้ำโสม",
		"name_en" : "NAM SOM",
		"province_id" : 41
	},
	{
		"id" : 4119,
		"name" : "เพ็ญ",
		"name_en" : "PHEN",
		"province_id" : 41
	},
	{
		"id" : 4120,
		"name" : "สร้างคอม",
		"name_en" : "SANG KHOM",
		"province_id" : 41
	},
	{
		"id" : 4121,
		"name" : "หนองแสง",
		"name_en" : "NONG SAENG",
		"province_id" : 41
	},
	{
		"id" : 4122,
		"name" : "นายูง",
		"name_en" : "NA YUNG",
		"province_id" : 41
	},
	{
		"id" : 4123,
		"name" : "พิบูลย์รักษ์",
		"name_en" : "PHIBUN RAK",
		"province_id" : 41
	},
	{
		"id" : 4124,
		"name" : "กู่แก้ว",
		"name_en" : "KU KAEO",
		"province_id" : 41
	},
	{
		"id" : 4125,
		"name" : "ประจักษ์ศิลปาคม",
		"name_en" : "RACHAK-SINLAPAKHOM",
		"province_id" : 41
	},
	{
		"id" : 4201,
		"name" : "เมืองเลย",
		"name_en" : "MUEANG LOEI",
		"province_id" : 42
	},
	{
		"id" : 4202,
		"name" : "นาด้วง",
		"name_en" : "NA DUANG",
		"province_id" : 42
	},
	{
		"id" : 4203,
		"name" : "เชียงคาน",
		"name_en" : "CHIANG KHAN",
		"province_id" : 42
	},
	{
		"id" : 4204,
		"name" : "ปากชม",
		"name_en" : "PAK CHOM",
		"province_id" : 42
	},
	{
		"id" : 4205,
		"name" : "ด่านซ้าย",
		"name_en" : "DAN SAI",
		"province_id" : 42
	},
	{
		"id" : 4206,
		"name" : "นาแห้ว",
		"name_en" : "NA HAEO",
		"province_id" : 42
	},
	{
		"id" : 4207,
		"name" : "ภูเรือ",
		"name_en" : "PHU RUEA",
		"province_id" : 42
	},
	{
		"id" : 4208,
		"name" : "ท่าลี่",
		"name_en" : "THA LI",
		"province_id" : 42
	},
	{
		"id" : 4209,
		"name" : "วังสะพุง",
		"name_en" : "WANG SAPHUNG",
		"province_id" : 42
	},
	{
		"id" : 4210,
		"name" : "ภูกระดึง",
		"name_en" : "PHU KRADUENG",
		"province_id" : 42
	},
	{
		"id" : 4211,
		"name" : "ภูหลวง",
		"name_en" : "PHU LUANG",
		"province_id" : 42
	},
	{
		"id" : 4212,
		"name" : "ผาขาว",
		"name_en" : "PHA KHAO",
		"province_id" : 42
	},
	{
		"id" : 4213,
		"name" : "เอราวัณ",
		"name_en" : "ERAWAN",
		"province_id" : 42
	},
	{
		"id" : 4214,
		"name" : "หนองหิน",
		"name_en" : "NONG HIN",
		"province_id" : 42
	},
	{
		"id" : 4301,
		"name" : "เมืองหนองคาย",
		"name_en" : "MUEANG NONG KHAI",
		"province_id" : 43
	},
	{
		"id" : 4302,
		"name" : "ท่าบ่อ",
		"name_en" : "THA BO",
		"province_id" : 43
	},
	{
		"id" : 4305,
		"name" : "โพนพิสัย",
		"name_en" : "PHON PHISAI",
		"province_id" : 43
	},
	{
		"id" : 4307,
		"name" : "ศรีเชียงใหม่",
		"name_en" : "SI CHIANG MAI",
		"province_id" : 43
	},
	{
		"id" : 4308,
		"name" : "สังคม",
		"name_en" : "SANGKHOM",
		"province_id" : 43
	},
	{
		"id" : 4314,
		"name" : "สระใคร",
		"name_en" : "SAKHRAI",
		"province_id" : 43
	},
	{
		"id" : 4315,
		"name" : "เฝ้าไร่",
		"name_en" : "FAO RAI",
		"province_id" : 43
	},
	{
		"id" : 4316,
		"name" : "รัตนวาปี",
		"name_en" : "RATTANAWAPI",
		"province_id" : 43
	},
	{
		"id" : 4317,
		"name" : "โพธิ์ตาก",
		"name_en" : "PHO TAK",
		"province_id" : 43
	},
	{
		"id" : 4401,
		"name" : "เมืองมหาสารคาม",
		"name_en" : "MUEANG MAHA SARAKHAM",
		"province_id" : 44
	},
	{
		"id" : 4402,
		"name" : "แกดำ",
		"name_en" : "KAE DAM",
		"province_id" : 44
	},
	{
		"id" : 4403,
		"name" : "โกสุมพิสัย",
		"name_en" : "KOSUM PHISAI",
		"province_id" : 44
	},
	{
		"id" : 4404,
		"name" : "กันทรวิชัย",
		"name_en" : "KANTHARAWICHAI",
		"province_id" : 44
	},
	{
		"id" : 4405,
		"name" : "เชียงยืน",
		"name_en" : "KANTHARAWICHAI",
		"province_id" : 44
	},
	{
		"id" : 4406,
		"name" : "บรบือ",
		"name_en" : "BORABUE",
		"province_id" : 44
	},
	{
		"id" : 4407,
		"name" : "นาเชือก",
		"name_en" : "NA CHUEAK",
		"province_id" : 44
	},
	{
		"id" : 4408,
		"name" : "พยัคฆภูมิพิสัย",
		"name_en" : "PHAYAKKHAPHUM PHISAI",
		"province_id" : 44
	},
	{
		"id" : 4409,
		"name" : "วาปีปทุม",
		"name_en" : "WAPI PATHUM",
		"province_id" : 44
	},
	{
		"id" : 4410,
		"name" : "นาดูน",
		"name_en" : "NA DUN",
		"province_id" : 44
	},
	{
		"id" : 4411,
		"name" : "ยางสีสุราช",
		"name_en" : "YANG SISURAT",
		"province_id" : 44
	},
	{
		"id" : 4412,
		"name" : "กุดรัง",
		"name_en" : "KUT RANG",
		"province_id" : 44
	},
	{
		"id" : 4413,
		"name" : "ชื่นชม",
		"name_en" : "CHUEN CHOM",
		"province_id" : 44
	},
	{
		"id" : 4501,
		"name" : "เมืองร้อยเอ็ด",
		"name_en" : "MUEANG ROI ET",
		"province_id" : 45
	},
	{
		"id" : 4502,
		"name" : "เกษตรวิสัย",
		"name_en" : "KASET WISAI",
		"province_id" : 45
	},
	{
		"id" : 4503,
		"name" : "ปทุมรัตต์",
		"name_en" : "PATHUM RAT",
		"province_id" : 45
	},
	{
		"id" : 4504,
		"name" : "จตุรพักตรพิมาน",
		"name_en" : "CHATURAPHAK PHIMAN",
		"province_id" : 45
	},
	{
		"id" : 4505,
		"name" : "ธวัชบุรี",
		"name_en" : "THAWAT BURI",
		"province_id" : 45
	},
	{
		"id" : 4506,
		"name" : "พนมไพร",
		"name_en" : "PHANOM PHRAI",
		"province_id" : 45
	},
	{
		"id" : 4507,
		"name" : "โพนทอง",
		"name_en" : "PHON THONG",
		"province_id" : 45
	},
	{
		"id" : 4508,
		"name" : "โพธิ์ชัย",
		"name_en" : "PHO CHAI",
		"province_id" : 45
	},
	{
		"id" : 4509,
		"name" : "หนองพอก",
		"name_en" : "NONG PHOK",
		"province_id" : 45
	},
	{
		"id" : 4510,
		"name" : "เสลภูมิ",
		"name_en" : "SELAPHUM",
		"province_id" : 45
	},
	{
		"id" : 4511,
		"name" : "สุวรรณภูมิ",
		"name_en" : "SUWANNAPHUM",
		"province_id" : 45
	},
	{
		"id" : 4512,
		"name" : "เมืองสรวง",
		"name_en" : "MUEANG SUANG",
		"province_id" : 45
	},
	{
		"id" : 4513,
		"name" : "โพนทราย",
		"name_en" : "PHON SAI",
		"province_id" : 45
	},
	{
		"id" : 4514,
		"name" : "อาจสามารถ",
		"name_en" : "AT SAMAT",
		"province_id" : 45
	},
	{
		"id" : 4515,
		"name" : "เมยวดี",
		"name_en" : "MOEI WADI",
		"province_id" : 45
	},
	{
		"id" : 4516,
		"name" : "ศรีสมเด็จ",
		"name_en" : "SI SOMDET",
		"province_id" : 45
	},
	{
		"id" : 4517,
		"name" : "จังหาร",
		"name_en" : "CHANGHAN",
		"province_id" : 45
	},
	{
		"id" : 4518,
		"name" : "เชียงขวัญ",
		"name_en" : "CHIANG KHWAN",
		"province_id" : 45
	},
	{
		"id" : 4519,
		"name" : "หนองฮี",
		"name_en" : "NONG HI",
		"province_id" : 45
	},
	{
		"id" : 4520,
		"name" : "ทุ่งเขาหลวง",
		"name_en" : "THUNG KHAO LUANGกิ่",
		"province_id" : 45
	},
	{
		"id" : 4601,
		"name" : "เมืองกาฬสินธุ์",
		"name_en" : "MUEANG KALASIN",
		"province_id" : 46
	},
	{
		"id" : 4602,
		"name" : "นามน",
		"name_en" : "NA MON",
		"province_id" : 46
	},
	{
		"id" : 4603,
		"name" : "กมลาไสย",
		"name_en" : "KAMALASAI",
		"province_id" : 46
	},
	{
		"id" : 4604,
		"name" : "ร่องคำ",
		"name_en" : "RONG KHAM",
		"province_id" : 46
	},
	{
		"id" : 4605,
		"name" : "กุฉินารายณ์",
		"name_en" : "KUCHINARAI",
		"province_id" : 46
	},
	{
		"id" : 4606,
		"name" : "เขาวง",
		"name_en" : "KHAO WONG",
		"province_id" : 46
	},
	{
		"id" : 4607,
		"name" : "ยางตลาด",
		"name_en" : "YANG TALAT",
		"province_id" : 46
	},
	{
		"id" : 4608,
		"name" : "ห้วยเม็ก",
		"name_en" : "HUAI MEK",
		"province_id" : 46
	},
	{
		"id" : 4609,
		"name" : "สหัสขันธ์",
		"name_en" : "SAHATSAKHAN",
		"province_id" : 46
	},
	{
		"id" : 4610,
		"name" : "คำม่วง",
		"name_en" : "KHAM MUANG",
		"province_id" : 46
	},
	{
		"id" : 4611,
		"name" : "ท่าคันโท",
		"name_en" : "THA KHANTHO",
		"province_id" : 46
	},
	{
		"id" : 4612,
		"name" : "หนองกุงศรี",
		"name_en" : "NONG KUNG SI",
		"province_id" : 46
	},
	{
		"id" : 4613,
		"name" : "สมเด็จ",
		"name_en" : "SOMDET",
		"province_id" : 46
	},
	{
		"id" : 4614,
		"name" : "ห้วยผึ้ง",
		"name_en" : "HUAI PHUENG",
		"province_id" : 46
	},
	{
		"id" : 4615,
		"name" : "สามชัย",
		"name_en" : "SAM CHAI",
		"province_id" : 46
	},
	{
		"id" : 4616,
		"name" : "นาคู",
		"name_en" : "NA KHU",
		"province_id" : 46
	},
	{
		"id" : 4617,
		"name" : "ดอนจาน",
		"name_en" : "DON CHAN",
		"province_id" : 46
	},
	{
		"id" : 4618,
		"name" : "ฆ้องชัย",
		"name_en" : "KHONG CHAI",
		"province_id" : 46
	},
	{
		"id" : 4701,
		"name" : "เมืองสกลนคร",
		"name_en" : "MUEANG SAKON NAKHON",
		"province_id" : 47
	},
	{
		"id" : 4702,
		"name" : "กุสุมาลย์",
		"name_en" : "KUSUMAN",
		"province_id" : 47
	},
	{
		"id" : 4703,
		"name" : "กุดบาก",
		"name_en" : "KUT BAK",
		"province_id" : 47
	},
	{
		"id" : 4704,
		"name" : "พรรณานิคม",
		"name_en" : "PHANNA NIKHOM",
		"province_id" : 47
	},
	{
		"id" : 4705,
		"name" : "พังโคน",
		"name_en" : "PHANG KHON",
		"province_id" : 47
	},
	{
		"id" : 4706,
		"name" : "วาริชภูมิ",
		"name_en" : "WARITCHAPHUM",
		"province_id" : 47
	},
	{
		"id" : 4707,
		"name" : "นิคมน้ำอูน",
		"name_en" : "NIKHOM NAM UN",
		"province_id" : 47
	},
	{
		"id" : 4708,
		"name" : "วานรนิวาส",
		"name_en" : "WANON NIWAT",
		"province_id" : 47
	},
	{
		"id" : 4709,
		"name" : "คำตากล้า",
		"name_en" : "KHAM TA KLA",
		"province_id" : 47
	},
	{
		"id" : 4710,
		"name" : "บ้านม่วง",
		"name_en" : "BAN MUANG",
		"province_id" : 47
	},
	{
		"id" : 4711,
		"name" : "อากาศอำนวย",
		"name_en" : "AKAT AMNUAI",
		"province_id" : 47
	},
	{
		"id" : 4712,
		"name" : "สว่างแดนดิน",
		"name_en" : "SAWANG DAEN DIN",
		"province_id" : 47
	},
	{
		"id" : 4713,
		"name" : "ส่องดาว",
		"name_en" : "SONG DAO",
		"province_id" : 47
	},
	{
		"id" : 4714,
		"name" : "เต่างอย",
		"name_en" : "TAO NGOI",
		"province_id" : 47
	},
	{
		"id" : 4715,
		"name" : "โคกศรีสุพรรณ",
		"name_en" : "KHOK SI SUPHAN",
		"province_id" : 47
	},
	{
		"id" : 4716,
		"name" : "เจริญศิลป์",
		"name_en" : "CHAROEN SIN",
		"province_id" : 47
	},
	{
		"id" : 4717,
		"name" : "โพนนาแก้ว",
		"name_en" : "PHON NA KAEO",
		"province_id" : 47
	},
	{
		"id" : 4718,
		"name" : "ภูพาน",
		"name_en" : "PHU PHAN",
		"province_id" : 47
	},
	{
		"id" : 4801,
		"name" : "เมืองนครพนม",
		"name_en" : "MUEANG NAKHON PHANOM",
		"province_id" : 48
	},
	{
		"id" : 4802,
		"name" : "ปลาปาก",
		"name_en" : "PLA PAK",
		"province_id" : 48
	},
	{
		"id" : 4803,
		"name" : "ท่าอุเทน",
		"name_en" : "THA UTHEN",
		"province_id" : 48
	},
	{
		"id" : 4804,
		"name" : "บ้านแพง",
		"name_en" : "BAN PHAENG",
		"province_id" : 48
	},
	{
		"id" : 4805,
		"name" : "ธาตุพนม",
		"name_en" : "THAT PHANOM",
		"province_id" : 48
	},
	{
		"id" : 4806,
		"name" : "เรณูนคร",
		"name_en" : "RENU NAKHON",
		"province_id" : 48
	},
	{
		"id" : 4807,
		"name" : "นาแก",
		"name_en" : "NA KAE",
		"province_id" : 48
	},
	{
		"id" : 4808,
		"name" : "ศรีสงคราม",
		"name_en" : "SI SONGKHRAM",
		"province_id" : 48
	},
	{
		"id" : 4809,
		"name" : "นาหว้า",
		"name_en" : "NA WA",
		"province_id" : 48
	},
	{
		"id" : 4810,
		"name" : "โพนสวรรค์",
		"name_en" : "PHON SAWAN",
		"province_id" : 48
	},
	{
		"id" : 4811,
		"name" : "นาทม",
		"name_en" : "NA THOM",
		"province_id" : 48
	},
	{
		"id" : 4812,
		"name" : "วังยาง",
		"name_en" : "WANG YANG",
		"province_id" : 48
	},
	{
		"id" : 4901,
		"name" : "เมืองมุกดาหาร",
		"name_en" : "MUEANG MUKDAHAN",
		"province_id" : 49
	},
	{
		"id" : 4902,
		"name" : "นิคมคำสร้อย",
		"name_en" : "NIKHOM KHAM SOI",
		"province_id" : 49
	},
	{
		"id" : 4903,
		"name" : "ดอนตาล",
		"name_en" : "DON TAN",
		"province_id" : 49
	},
	{
		"id" : 4904,
		"name" : "ดงหลวง",
		"name_en" : "DONG LUANG",
		"province_id" : 49
	},
	{
		"id" : 4905,
		"name" : "คำชะอี",
		"name_en" : "KHAMCHA-I",
		"province_id" : 49
	},
	{
		"id" : 4906,
		"name" : "หว้านใหญ่",
		"name_en" : "WAN YAI",
		"province_id" : 49
	},
	{
		"id" : 4907,
		"name" : "หนองสูง",
		"name_en" : "NONG SUNG",
		"province_id" : 49
	},
	{
		"id" : 5001,
		"name" : "เมืองเชียงใหม่",
		"name_en" : "MUEANG CHIANG MAI",
		"province_id" : 50
	},
	{
		"id" : 5002,
		"name" : "จอมทอง",
		"name_en" : "CHOM THONG",
		"province_id" : 50
	},
	{
		"id" : 5003,
		"name" : "แม่แจ่ม",
		"name_en" : "MAE CHAEM",
		"province_id" : 50
	},
	{
		"id" : 5004,
		"name" : "เชียงดาว",
		"name_en" : "CHIANG DAO",
		"province_id" : 50
	},
	{
		"id" : 5005,
		"name" : "ดอยสะเก็ด",
		"name_en" : "DOI SAKET",
		"province_id" : 50
	},
	{
		"id" : 5006,
		"name" : "แม่แตง",
		"name_en" : "MAE TAENG",
		"province_id" : 50
	},
	{
		"id" : 5007,
		"name" : "แม่ริม",
		"name_en" : "MAE RIM",
		"province_id" : 50
	},
	{
		"id" : 5008,
		"name" : "สะเมิง",
		"name_en" : "SAMOENG",
		"province_id" : 50
	},
	{
		"id" : 5009,
		"name" : "ฝาง",
		"name_en" : "FANG",
		"province_id" : 50
	},
	{
		"id" : 5010,
		"name" : "แม่อาย",
		"name_en" : "MAE AI",
		"province_id" : 50
	},
	{
		"id" : 5011,
		"name" : "พร้าว",
		"name_en" : "PHRAO",
		"province_id" : 50
	},
	{
		"id" : 5012,
		"name" : "สันป่าตอง",
		"name_en" : "SAN PA TONG",
		"province_id" : 50
	},
	{
		"id" : 5013,
		"name" : "สันกำแพง",
		"name_en" : "SAN KAMPHAENG",
		"province_id" : 50
	},
	{
		"id" : 5014,
		"name" : "สันทราย",
		"name_en" : "SAN SAI",
		"province_id" : 50
	},
	{
		"id" : 5015,
		"name" : "หางดง",
		"name_en" : "HANG DONG",
		"province_id" : 50
	},
	{
		"id" : 5016,
		"name" : "ฮอด",
		"name_en" : "HOT",
		"province_id" : 50
	},
	{
		"id" : 5017,
		"name" : "ดอยเต่า",
		"name_en" : "DOI TAO",
		"province_id" : 50
	},
	{
		"id" : 5018,
		"name" : "อมก๋อย",
		"name_en" : "OMKOI",
		"province_id" : 50
	},
	{
		"id" : 5019,
		"name" : "สารภี",
		"name_en" : "SARAPHI",
		"province_id" : 50
	},
	{
		"id" : 5020,
		"name" : "เวียงแหง",
		"name_en" : "WIANG HAENG",
		"province_id" : 50
	},
	{
		"id" : 5021,
		"name" : "ไชยปราการ",
		"name_en" : "CHAI PRAKAN",
		"province_id" : 50
	},
	{
		"id" : 5022,
		"name" : "แม่วาง",
		"name_en" : "MAE WANG",
		"province_id" : 50
	},
	{
		"id" : 5023,
		"name" : "แม่ออน",
		"name_en" : "MAE ON",
		"province_id" : 50
	},
	{
		"id" : 5024,
		"name" : "ดอยหล่อ",
		"name_en" : "DOI LO",
		"province_id" : 50
	},
	{
		"id" : 5025,
		"name" : "กัลยาณิวัฒนา",
		"name_en" : "",
		"province_id" : 50
	},
	{
		"id" : 5101,
		"name" : "เมืองลำพูน",
		"name_en" : "MUEANG LAMPHUN",
		"province_id" : 51
	},
	{
		"id" : 5102,
		"name" : "แม่ทา",
		"name_en" : "MAE THA",
		"province_id" : 51
	},
	{
		"id" : 5103,
		"name" : "บ้านโฮ่ง",
		"name_en" : "BAN HONG",
		"province_id" : 51
	},
	{
		"id" : 5104,
		"name" : "ลี้",
		"name_en" : "LI",
		"province_id" : 51
	},
	{
		"id" : 5105,
		"name" : "ทุ่งหัวช้าง",
		"name_en" : "THUNG HUA CHANG",
		"province_id" : 51
	},
	{
		"id" : 5106,
		"name" : "ป่าซาง",
		"name_en" : "PA SANG",
		"province_id" : 51
	},
	{
		"id" : 5107,
		"name" : "บ้านธิ",
		"name_en" : "BAN THI",
		"province_id" : 51
	},
	{
		"id" : 5108,
		"name" : "เวียงหนองล่อง",
		"name_en" : "WIANG NONG LONG",
		"province_id" : 51
	},
	{
		"id" : 5201,
		"name" : "เมืองลำปาง",
		"name_en" : "MUEANG LAMPANG",
		"province_id" : 52
	},
	{
		"id" : 5202,
		"name" : "แม่เมาะ",
		"name_en" : "MAE MO",
		"province_id" : 52
	},
	{
		"id" : 5203,
		"name" : "เกาะคา",
		"name_en" : "KO KHA",
		"province_id" : 52
	},
	{
		"id" : 5204,
		"name" : "เสริมงาม",
		"name_en" : "SOEM NGAM",
		"province_id" : 52
	},
	{
		"id" : 5205,
		"name" : "งาว",
		"name_en" : "NGAO",
		"province_id" : 52
	},
	{
		"id" : 5206,
		"name" : "แจ้ห่ม",
		"name_en" : "CHAE HOM",
		"province_id" : 52
	},
	{
		"id" : 5207,
		"name" : "วังเหนือ",
		"name_en" : "WANG NUEA",
		"province_id" : 52
	},
	{
		"id" : 5208,
		"name" : "เถิน",
		"name_en" : "THOEN",
		"province_id" : 52
	},
	{
		"id" : 5209,
		"name" : "แม่พริก",
		"name_en" : "MAE PHRIK",
		"province_id" : 52
	},
	{
		"id" : 5210,
		"name" : "แม่ทะ",
		"name_en" : "MAE THA",
		"province_id" : 52
	},
	{
		"id" : 5211,
		"name" : "สบปราบ",
		"name_en" : "SOP PRAP",
		"province_id" : 52
	},
	{
		"id" : 5212,
		"name" : "ห้างฉัตร",
		"name_en" : "HANG CHAT",
		"province_id" : 52
	},
	{
		"id" : 5213,
		"name" : "เมืองปาน",
		"name_en" : "MUEANG PAN",
		"province_id" : 52
	},
	{
		"id" : 5301,
		"name" : "เมืองอุตรดิตถ์",
		"name_en" : "MUEANG UTTARADIT",
		"province_id" : 53
	},
	{
		"id" : 5302,
		"name" : "ตรอน",
		"name_en" : "TRON",
		"province_id" : 53
	},
	{
		"id" : 5303,
		"name" : "ท่าปลา",
		"name_en" : "THA PLA",
		"province_id" : 53
	},
	{
		"id" : 5304,
		"name" : "น้ำปาด",
		"name_en" : "NAM PAT",
		"province_id" : 53
	},
	{
		"id" : 5305,
		"name" : "ฟากท่า",
		"name_en" : "FAK THA",
		"province_id" : 53
	},
	{
		"id" : 5306,
		"name" : "บ้านโคก",
		"name_en" : "BAN KHOK",
		"province_id" : 53
	},
	{
		"id" : 5307,
		"name" : "พิชัย",
		"name_en" : "PHICHAI",
		"province_id" : 53
	},
	{
		"id" : 5308,
		"name" : "ลับแล",
		"name_en" : "LAPLAE",
		"province_id" : 53
	},
	{
		"id" : 5309,
		"name" : "ทองแสนขัน",
		"name_en" : "THONG SAEN KHAN",
		"province_id" : 53
	},
	{
		"id" : 5401,
		"name" : "เมืองแพร่",
		"name_en" : "MUEANG PHRAE",
		"province_id" : 54
	},
	{
		"id" : 5402,
		"name" : "ร้องกวาง",
		"name_en" : "RONG KWANG",
		"province_id" : 54
	},
	{
		"id" : 5403,
		"name" : "ลอง",
		"name_en" : "LONG",
		"province_id" : 54
	},
	{
		"id" : 5404,
		"name" : "สูงเม่น",
		"name_en" : "SUNG MEN",
		"province_id" : 54
	},
	{
		"id" : 5405,
		"name" : "เด่นชัย",
		"name_en" : "DEN CHAI",
		"province_id" : 54
	},
	{
		"id" : 5406,
		"name" : "สอง",
		"name_en" : "SONG",
		"province_id" : 54
	},
	{
		"id" : 5407,
		"name" : "วังชิ้น",
		"name_en" : "WANG CHIN",
		"province_id" : 54
	},
	{
		"id" : 5408,
		"name" : "หนองม่วงไข่",
		"name_en" : "NONG MUANG KHAI",
		"province_id" : 54
	},
	{
		"id" : 5501,
		"name" : "เมืองน่าน",
		"name_en" : "MUEANG NAN",
		"province_id" : 55
	},
	{
		"id" : 5502,
		"name" : "แม่จริม",
		"name_en" : "MAE CHARIM",
		"province_id" : 55
	},
	{
		"id" : 5503,
		"name" : "บ้านหลวง",
		"name_en" : "BAN LUANG",
		"province_id" : 55
	},
	{
		"id" : 5504,
		"name" : "นาน้อย",
		"name_en" : "NA NOI",
		"province_id" : 55
	},
	{
		"id" : 5505,
		"name" : "ปัว",
		"name_en" : "PUA",
		"province_id" : 55
	},
	{
		"id" : 5506,
		"name" : "ท่าวังผา",
		"name_en" : "THA WANG PHA",
		"province_id" : 55
	},
	{
		"id" : 5507,
		"name" : "เวียงสา",
		"name_en" : "WIANG SA",
		"province_id" : 55
	},
	{
		"id" : 5508,
		"name" : "ทุ่งช้าง",
		"name_en" : "THUNG CHANG",
		"province_id" : 55
	},
	{
		"id" : 5509,
		"name" : "เชียงกลาง",
		"name_en" : "CHIANG KLANG",
		"province_id" : 55
	},
	{
		"id" : 5510,
		"name" : "นาหมื่น",
		"name_en" : "NA MUEN",
		"province_id" : 55
	},
	{
		"id" : 5511,
		"name" : "สันติสุข",
		"name_en" : "SANTI SUK",
		"province_id" : 55
	},
	{
		"id" : 5512,
		"name" : "บ่อเกลือ",
		"name_en" : "BO KLUEA",
		"province_id" : 55
	},
	{
		"id" : 5513,
		"name" : "สองแคว",
		"name_en" : "SONG KHWAE",
		"province_id" : 55
	},
	{
		"id" : 5514,
		"name" : "ภูเพียง",
		"name_en" : "PHU PHIANG",
		"province_id" : 55
	},
	{
		"id" : 5515,
		"name" : "เฉลิมพระเกียรติ",
		"name_en" : "CHALOEM PHRA KIAT",
		"province_id" : 55
	},
	{
		"id" : 5601,
		"name" : "เมืองพะเยา",
		"name_en" : "MUEANG PHAYAO",
		"province_id" : 56
	},
	{
		"id" : 5602,
		"name" : "จุน",
		"name_en" : "CHUN",
		"province_id" : 56
	},
	{
		"id" : 5603,
		"name" : "เชียงคำ",
		"name_en" : "CHIANG KHAM",
		"province_id" : 56
	},
	{
		"id" : 5604,
		"name" : "เชียงม่วน",
		"name_en" : "CHIANG MUAN",
		"province_id" : 56
	},
	{
		"id" : 5605,
		"name" : "ดอกคำใต้",
		"name_en" : "DOK KHAMTAI",
		"province_id" : 56
	},
	{
		"id" : 5606,
		"name" : "ปง",
		"name_en" : "PONG",
		"province_id" : 56
	},
	{
		"id" : 5607,
		"name" : "แม่ใจ",
		"name_en" : "MAE CHAI",
		"province_id" : 56
	},
	{
		"id" : 5608,
		"name" : "ภูซาง",
		"name_en" : "PHU SANG",
		"province_id" : 56
	},
	{
		"id" : 5609,
		"name" : "ภูกามยาว",
		"name_en" : "PHU KAMYAO",
		"province_id" : 56
	},
	{
		"id" : 5701,
		"name" : "เมืองเชียงราย",
		"name_en" : "MUEANG CHIANG RAI",
		"province_id" : 57
	},
	{
		"id" : 5702,
		"name" : "เวียงชัย",
		"name_en" : "WIANG CHAI",
		"province_id" : 57
	},
	{
		"id" : 5703,
		"name" : "เชียงของ",
		"name_en" : "CHIANG KHONG",
		"province_id" : 57
	},
	{
		"id" : 5704,
		"name" : "เทิง",
		"name_en" : "THOENG",
		"province_id" : 57
	},
	{
		"id" : 5705,
		"name" : "พาน",
		"name_en" : "PHAN",
		"province_id" : 57
	},
	{
		"id" : 5706,
		"name" : "ป่าแดด",
		"name_en" : "PA DAET",
		"province_id" : 57
	},
	{
		"id" : 5707,
		"name" : "แม่จัน",
		"name_en" : "MAE CHAN",
		"province_id" : 57
	},
	{
		"id" : 5708,
		"name" : "เชียงแสน",
		"name_en" : "CHIANG SAEN",
		"province_id" : 57
	},
	{
		"id" : 5709,
		"name" : "แม่สาย",
		"name_en" : "MAE SAI",
		"province_id" : 57
	},
	{
		"id" : 5710,
		"name" : "แม่สรวย",
		"name_en" : "MAE SUAI",
		"province_id" : 57
	},
	{
		"id" : 5711,
		"name" : "เวียงป่าเป้า",
		"name_en" : "WIANG PA PAO",
		"province_id" : 57
	},
	{
		"id" : 5712,
		"name" : "พญาเม็งราย",
		"name_en" : "PHAYA MENGRAI",
		"province_id" : 57
	},
	{
		"id" : 5713,
		"name" : "เวียงแก่น",
		"name_en" : "WIANG KAEN",
		"province_id" : 57
	},
	{
		"id" : 5714,
		"name" : "ขุนตาล",
		"name_en" : "KHUN TAN",
		"province_id" : 57
	},
	{
		"id" : 5715,
		"name" : "แม่ฟ้าหลวง",
		"name_en" : "MAE FA LUANG",
		"province_id" : 57
	},
	{
		"id" : 5716,
		"name" : "แม่ลาว",
		"name_en" : "MAE LAO",
		"province_id" : 57
	},
	{
		"id" : 5717,
		"name" : "เวียงเชียงรุ้ง",
		"name_en" : "WIANG CHIANG RUNG",
		"province_id" : 57
	},
	{
		"id" : 5718,
		"name" : "ดอยหลวง",
		"name_en" : "DOI LUANG",
		"province_id" : 57
	},
	{
		"id" : 5801,
		"name" : "เมืองแม่ฮ่องสอน",
		"name_en" : "MUEANG MAE HONG SON",
		"province_id" : 58
	},
	{
		"id" : 5802,
		"name" : "ขุนยวม",
		"name_en" : "KHUN YUAM",
		"province_id" : 58
	},
	{
		"id" : 5803,
		"name" : "ปาย",
		"name_en" : "PAI",
		"province_id" : 58
	},
	{
		"id" : 5804,
		"name" : "แม่สะเรียง",
		"name_en" : "MAE SARIANG",
		"province_id" : 58
	},
	{
		"id" : 5805,
		"name" : "แม่ลาน้อย",
		"name_en" : "MAE LA NOI",
		"province_id" : 58
	},
	{
		"id" : 5806,
		"name" : "สบเมย",
		"name_en" : "SOP MOEI",
		"province_id" : 58
	},
	{
		"id" : 5807,
		"name" : "ปางมะผ้า",
		"name_en" : "PANG MAPHA",
		"province_id" : 58
	},
	{
		"id" : 6001,
		"name" : "เมืองนครสวรรค์",
		"name_en" : "MUEANG NAKHON SAWAN",
		"province_id" : 60
	},
	{
		"id" : 6002,
		"name" : "โกรกพระ",
		"name_en" : "KROK PHRA",
		"province_id" : 60
	},
	{
		"id" : 6003,
		"name" : "ชุมแสง",
		"name_en" : "CHUM SAENG",
		"province_id" : 60
	},
	{
		"id" : 6004,
		"name" : "หนองบัว",
		"name_en" : "NONG BUA",
		"province_id" : 60
	},
	{
		"id" : 6005,
		"name" : "บรรพตพิสัย",
		"name_en" : "BANPHOT PHISAI",
		"province_id" : 60
	},
	{
		"id" : 6006,
		"name" : "เก้าเลี้ยว",
		"name_en" : "KAO LIAO",
		"province_id" : 60
	},
	{
		"id" : 6007,
		"name" : "ตาคลี",
		"name_en" : "TAKHLI",
		"province_id" : 60
	},
	{
		"id" : 6008,
		"name" : "ท่าตะโก",
		"name_en" : "TAKHLI",
		"province_id" : 60
	},
	{
		"id" : 6009,
		"name" : "ไพศาลี",
		"name_en" : "PHAISALI",
		"province_id" : 60
	},
	{
		"id" : 6010,
		"name" : "พยุหะคีรี",
		"name_en" : "PHAYUHA KHIRI",
		"province_id" : 60
	},
	{
		"id" : 6011,
		"name" : "ลาดยาว",
		"name_en" : "PHAYUHA KHIRI",
		"province_id" : 60
	},
	{
		"id" : 6012,
		"name" : "ตากฟ้า",
		"name_en" : "TAK FA",
		"province_id" : 60
	},
	{
		"id" : 6013,
		"name" : "แม่วงก์",
		"name_en" : "MAE WONG",
		"province_id" : 60
	},
	{
		"id" : 6014,
		"name" : "แม่เปิน",
		"name_en" : "MAE POEN",
		"province_id" : 60
	},
	{
		"id" : 6015,
		"name" : "ชุมตาบง",
		"name_en" : "CHUM TA BONG",
		"province_id" : 60
	},
	{
		"id" : 6101,
		"name" : "เมืองอุทัยธานี",
		"name_en" : "MUEANG UTHAI THANI",
		"province_id" : 61
	},
	{
		"id" : 6102,
		"name" : "ทัพทัน",
		"name_en" : "THAP THAN",
		"province_id" : 61
	},
	{
		"id" : 6103,
		"name" : "สว่างอารมณ์",
		"name_en" : "SAWANG AROM",
		"province_id" : 61
	},
	{
		"id" : 6104,
		"name" : "หนองฉาง",
		"name_en" : "NONG CHANG",
		"province_id" : 61
	},
	{
		"id" : 6105,
		"name" : "หนองขาหย่าง",
		"name_en" : "NONG KHAYANG",
		"province_id" : 61
	},
	{
		"id" : 6106,
		"name" : "บ้านไร่",
		"name_en" : "BAN RAI",
		"province_id" : 61
	},
	{
		"id" : 6107,
		"name" : "ลานสัก",
		"name_en" : "LAN SAK",
		"province_id" : 61
	},
	{
		"id" : 6108,
		"name" : "ห้วยคต",
		"name_en" : "HUAI KHOT",
		"province_id" : 61
	},
	{
		"id" : 6201,
		"name" : "เมืองกำแพงเพชร",
		"name_en" : "MUEANG KAMPHAENG PHET",
		"province_id" : 62
	},
	{
		"id" : 6202,
		"name" : "ไทรงาม",
		"name_en" : "SAI NGAM",
		"province_id" : 62
	},
	{
		"id" : 6203,
		"name" : "คลองลาน",
		"name_en" : "KHLONG LAN",
		"province_id" : 62
	},
	{
		"id" : 6204,
		"name" : "ขาณุวรลักษบุรี",
		"name_en" : "KHANU WORALAKSABURI",
		"province_id" : 62
	},
	{
		"id" : 6205,
		"name" : "คลองขลุง",
		"name_en" : "KHLONG KHLUNG",
		"province_id" : 62
	},
	{
		"id" : 6206,
		"name" : "พรานกระต่าย",
		"name_en" : "PHRAN KRATAI",
		"province_id" : 62
	},
	{
		"id" : 6207,
		"name" : "ลานกระบือ",
		"name_en" : "LAN KRABUE",
		"province_id" : 62
	},
	{
		"id" : 6208,
		"name" : "ทรายทองวัฒนา",
		"name_en" : "SAI THONG WATTHANA",
		"province_id" : 62
	},
	{
		"id" : 6209,
		"name" : "ปางศิลาทอง",
		"name_en" : "PANG SILA THONG",
		"province_id" : 62
	},
	{
		"id" : 6210,
		"name" : "บึงสามัคคี",
		"name_en" : "BUENG SAMAKKHI",
		"province_id" : 62
	},
	{
		"id" : 6211,
		"name" : "โกสัมพีนคร",
		"name_en" : "KOSAMPHI NAKHON",
		"province_id" : 62
	},
	{
		"id" : 6301,
		"name" : "เมืองตาก",
		"name_en" : "MUEANG TAK",
		"province_id" : 63
	},
	{
		"id" : 6302,
		"name" : "บ้านตาก",
		"name_en" : "BAN TAK",
		"province_id" : 63
	},
	{
		"id" : 6303,
		"name" : "สามเงา",
		"name_en" : "SAM NGAO",
		"province_id" : 63
	},
	{
		"id" : 6304,
		"name" : "แม่ระมาด",
		"name_en" : "MAE RAMAT",
		"province_id" : 63
	},
	{
		"id" : 6305,
		"name" : "ท่าสองยาง",
		"name_en" : "THA SONG YANG",
		"province_id" : 63
	},
	{
		"id" : 6306,
		"name" : "แม่สอด",
		"name_en" : "MAE SOT",
		"province_id" : 63
	},
	{
		"id" : 6307,
		"name" : "พบพระ",
		"name_en" : "PHOP PHRA",
		"province_id" : 63
	},
	{
		"id" : 6308,
		"name" : "อุ้มผาง",
		"name_en" : "UMPHANG",
		"province_id" : 63
	},
	{
		"id" : 6309,
		"name" : "วังเจ้า",
		"name_en" : "WANG CHAO",
		"province_id" : 63
	},
	{
		"id" : 6401,
		"name" : "เมืองสุโขทัย",
		"name_en" : "MUEANG SUKHOTHAI",
		"province_id" : 64
	},
	{
		"id" : 6402,
		"name" : "บ้านด่านลานหอย",
		"name_en" : "BAN DAN LAN HOI",
		"province_id" : 64
	},
	{
		"id" : 6403,
		"name" : "คีรีมาศ",
		"name_en" : "KHIRI MAT",
		"province_id" : 64
	},
	{
		"id" : 6404,
		"name" : "กงไกรลาศ",
		"name_en" : "KONG KRAILAT",
		"province_id" : 64
	},
	{
		"id" : 6405,
		"name" : "ศรีสัชนาลัย",
		"name_en" : "SI SATCHANALAI",
		"province_id" : 64
	},
	{
		"id" : 6406,
		"name" : "ศรีสำโรง",
		"name_en" : "SI SAMRONG",
		"province_id" : 64
	},
	{
		"id" : 6407,
		"name" : "สวรรคโลก",
		"name_en" : "SAWANKHALOK",
		"province_id" : 64
	},
	{
		"id" : 6408,
		"name" : "ศรีนคร",
		"name_en" : "SI NAKHON",
		"province_id" : 64
	},
	{
		"id" : 6409,
		"name" : "ทุ่งเสลี่ยม",
		"name_en" : "THUNG SALIAM",
		"province_id" : 64
	},
	{
		"id" : 6501,
		"name" : "เมืองพิษณุโลก",
		"name_en" : "MUEANG PHITSANULOK",
		"province_id" : 65
	},
	{
		"id" : 6502,
		"name" : "นครไทย",
		"name_en" : "NAKHON THAI",
		"province_id" : 65
	},
	{
		"id" : 6503,
		"name" : "ชาติตระการ",
		"name_en" : "CHAT TRAKAN",
		"province_id" : 65
	},
	{
		"id" : 6504,
		"name" : "บางระกำ",
		"name_en" : "BANG RAKAM",
		"province_id" : 65
	},
	{
		"id" : 6505,
		"name" : "บางกระทุ่ม",
		"name_en" : "BANG KRATHUM",
		"province_id" : 65
	},
	{
		"id" : 6506,
		"name" : "พรหมพิราม",
		"name_en" : "PHROM PHIRAM",
		"province_id" : 65
	},
	{
		"id" : 6507,
		"name" : "วัดโบสถ์",
		"name_en" : "WAT BOT",
		"province_id" : 65
	},
	{
		"id" : 6508,
		"name" : "วังทอง",
		"name_en" : "WANG THONG",
		"province_id" : 65
	},
	{
		"id" : 6509,
		"name" : "เนินมะปราง",
		"name_en" : "NOEN MAPRANG",
		"province_id" : 65
	},
	{
		"id" : 6601,
		"name" : "เมืองพิจิตร",
		"name_en" : "MUEANG PHICHIT",
		"province_id" : 66
	},
	{
		"id" : 6602,
		"name" : "วังทรายพูน",
		"name_en" : "WANG SAI PHUN",
		"province_id" : 66
	},
	{
		"id" : 6603,
		"name" : "โพธิ์ประทับช้าง",
		"name_en" : "PHO PRATHAP CHANG",
		"province_id" : 66
	},
	{
		"id" : 6604,
		"name" : "ตะพานหิน",
		"name_en" : "TAPHAN HIN",
		"province_id" : 66
	},
	{
		"id" : 6605,
		"name" : "บางมูลนาก",
		"name_en" : "BANG MUN NAK",
		"province_id" : 66
	},
	{
		"id" : 6606,
		"name" : "โพทะเล",
		"name_en" : "PHO THALE",
		"province_id" : 66
	},
	{
		"id" : 6607,
		"name" : "สามง่าม",
		"name_en" : "SAM NGAM",
		"province_id" : 66
	},
	{
		"id" : 6608,
		"name" : "ทับคล้อ",
		"name_en" : "TAP KHLO",
		"province_id" : 66
	},
	{
		"id" : 6609,
		"name" : "สากเหล็ก",
		"name_en" : "SAK LEK",
		"province_id" : 66
	},
	{
		"id" : 6610,
		"name" : "บึงนาราง",
		"name_en" : "BUENG NA RANG",
		"province_id" : 66
	},
	{
		"id" : 6611,
		"name" : "ดงเจริญ",
		"name_en" : "DONG CHAROEN",
		"province_id" : 66
	},
	{
		"id" : 6612,
		"name" : "วชิรบารมี",
		"name_en" : "WACHIRABARAMI",
		"province_id" : 66
	},
	{
		"id" : 6701,
		"name" : "เมืองเพชรบูรณ์",
		"name_en" : "MUEANG PHETCHABUN",
		"province_id" : 67
	},
	{
		"id" : 6702,
		"name" : "ชนแดน",
		"name_en" : "CHON DAEN",
		"province_id" : 67
	},
	{
		"id" : 6703,
		"name" : "หล่มสัก",
		"name_en" : "LOM SAK",
		"province_id" : 67
	},
	{
		"id" : 6704,
		"name" : "หล่มเก่า",
		"name_en" : "LOM KAO",
		"province_id" : 67
	},
	{
		"id" : 6705,
		"name" : "วิเชียรบุรี",
		"name_en" : "WICHIAN BURI",
		"province_id" : 67
	},
	{
		"id" : 6706,
		"name" : "ศรีเทพ",
		"name_en" : "SI THEP",
		"province_id" : 67
	},
	{
		"id" : 6707,
		"name" : "หนองไผ่",
		"name_en" : "NONG PHAI",
		"province_id" : 67
	},
	{
		"id" : 6708,
		"name" : "บึงสามพัน",
		"name_en" : "BUENG SAM PHAN",
		"province_id" : 67
	},
	{
		"id" : 6709,
		"name" : "น้ำหนาว",
		"name_en" : "NAM NAO",
		"province_id" : 67
	},
	{
		"id" : 6710,
		"name" : "วังโป่ง",
		"name_en" : "WANG PONG",
		"province_id" : 67
	},
	{
		"id" : 6711,
		"name" : "เขาค้อ",
		"name_en" : "KHAO KHO",
		"province_id" : 67
	},
	{
		"id" : 7001,
		"name" : "เมืองราชบุรี",
		"name_en" : "MUEANG RATCHABURI",
		"province_id" : 70
	},
	{
		"id" : 7002,
		"name" : "จอมบึง",
		"name_en" : "CHOM BUENG",
		"province_id" : 70
	},
	{
		"id" : 7003,
		"name" : "สวนผึ้ง",
		"name_en" : "SUAN PHUENG",
		"province_id" : 70
	},
	{
		"id" : 7004,
		"name" : "ดำเนินสะดวก",
		"name_en" : "DAMNOEN SADUAK",
		"province_id" : 70
	},
	{
		"id" : 7005,
		"name" : "บ้านโป่ง",
		"name_en" : "BAN PONG",
		"province_id" : 70
	},
	{
		"id" : 7006,
		"name" : "บางแพ",
		"name_en" : "BANG PHAE",
		"province_id" : 70
	},
	{
		"id" : 7007,
		"name" : "โพธาราม",
		"name_en" : "PHOTHARAM",
		"province_id" : 70
	},
	{
		"id" : 7008,
		"name" : "ปากท่อ",
		"name_en" : "PAK THO",
		"province_id" : 70
	},
	{
		"id" : 7009,
		"name" : "วัดเพลง",
		"name_en" : "WAT PHLENG",
		"province_id" : 70
	},
	{
		"id" : 7010,
		"name" : "บ้านคา",
		"name_en" : "BAN KHA",
		"province_id" : 70
	},
	{
		"id" : 7101,
		"name" : "เมืองกาญจนบุรี",
		"name_en" : "MUEANG KANCHANABURI",
		"province_id" : 71
	},
	{
		"id" : 7102,
		"name" : "ไทรโยค",
		"name_en" : "SAI YOK",
		"province_id" : 71
	},
	{
		"id" : 7103,
		"name" : "บ่อพลอย",
		"name_en" : "BO PHLOI",
		"province_id" : 71
	},
	{
		"id" : 7104,
		"name" : "ศรีสวัสดิ์",
		"name_en" : "SI SAWAT",
		"province_id" : 71
	},
	{
		"id" : 7105,
		"name" : "ท่ามะกา",
		"name_en" : "THA MAKA",
		"province_id" : 71
	},
	{
		"id" : 7106,
		"name" : "ท่าม่วง",
		"name_en" : "THA MUANG",
		"province_id" : 71
	},
	{
		"id" : 7107,
		"name" : "ทองผาภูมิ",
		"name_en" : "PHA PHUM",
		"province_id" : 71
	},
	{
		"id" : 7108,
		"name" : "สังขละบุรี",
		"name_en" : "SANGKHLA BURI",
		"province_id" : 71
	},
	{
		"id" : 7109,
		"name" : "พนมทวน",
		"name_en" : "PHANOM THUAN",
		"province_id" : 71
	},
	{
		"id" : 7110,
		"name" : "เลาขวัญ",
		"name_en" : "LAO KHWAN",
		"province_id" : 71
	},
	{
		"id" : 7111,
		"name" : "ด่านมะขามเตี้ย",
		"name_en" : "DAN MAKHAM TIA",
		"province_id" : 71
	},
	{
		"id" : 7112,
		"name" : "หนองปรือ",
		"name_en" : "NONG PRUE",
		"province_id" : 71
	},
	{
		"id" : 7113,
		"name" : "ห้วยกระเจา",
		"name_en" : "HUAI KRACHAO",
		"province_id" : 71
	},
	{
		"id" : 7201,
		"name" : "เมืองสุพรรณบุรี",
		"name_en" : "MUEANG SUPHAN BURI",
		"province_id" : 72
	},
	{
		"id" : 7202,
		"name" : "เดิมบางนางบวช",
		"name_en" : "DOEM BANG NANG BUAT",
		"province_id" : 72
	},
	{
		"id" : 7203,
		"name" : "ด่านช้าง",
		"name_en" : "DAN CHANG",
		"province_id" : 72
	},
	{
		"id" : 7204,
		"name" : "บางปลาม้า",
		"name_en" : "BANG PLA MA",
		"province_id" : 72
	},
	{
		"id" : 7205,
		"name" : "ศรีประจันต์",
		"name_en" : "SI PRACHAN",
		"province_id" : 72
	},
	{
		"id" : 7206,
		"name" : "ดอนเจดีย์",
		"name_en" : "DON CHEDI",
		"province_id" : 72
	},
	{
		"id" : 7207,
		"name" : "สองพี่น้อง",
		"name_en" : "SONG PHI NONG",
		"province_id" : 72
	},
	{
		"id" : 7208,
		"name" : "สามชุก",
		"name_en" : "SAM CHUK",
		"province_id" : 72
	},
	{
		"id" : 7209,
		"name" : "อู่ทอง",
		"name_en" : "U THONG",
		"province_id" : 72
	},
	{
		"id" : 7210,
		"name" : "หนองหญ้าไซ",
		"name_en" : "NONG YA SAI",
		"province_id" : 72
	},
	{
		"id" : 7301,
		"name" : "เมืองนครปฐม",
		"name_en" : "MUEANG NAKHON PATHOM",
		"province_id" : 73
	},
	{
		"id" : 7302,
		"name" : "กำแพงแสน",
		"name_en" : "KAMPHAENG SAEN",
		"province_id" : 73
	},
	{
		"id" : 7303,
		"name" : "นครชัยศรี",
		"name_en" : "NAKHON CHAI SI",
		"province_id" : 73
	},
	{
		"id" : 7304,
		"name" : "ดอนตูม",
		"name_en" : "DON TUM",
		"province_id" : 73
	},
	{
		"id" : 7305,
		"name" : "บางเลน",
		"name_en" : "BANG LEN",
		"province_id" : 73
	},
	{
		"id" : 7306,
		"name" : "สามพราน",
		"name_en" : "SAM PHRAN",
		"province_id" : 73
	},
	{
		"id" : 7307,
		"name" : "พุทธมณฑล",
		"name_en" : "PHUTTHAMONTHON",
		"province_id" : 73
	},
	{
		"id" : 7401,
		"name" : "เมืองสมุทรสาคร",
		"name_en" : "MUEANG SAMUT SAKHON",
		"province_id" : 74
	},
	{
		"id" : 7402,
		"name" : "กระทุ่มแบน",
		"name_en" : "KRATHUM BAEN",
		"province_id" : 74
	},
	{
		"id" : 7403,
		"name" : "บ้านแพ้ว",
		"name_en" : "BAN PHAEO",
		"province_id" : 74
	},
	{
		"id" : 7501,
		"name" : "เมืองสมุทรสงคราม",
		"name_en" : "MUEANG SAMUT SONGKHRAM",
		"province_id" : 75
	},
	{
		"id" : 7502,
		"name" : "บางคนที",
		"name_en" : "BANG KHONTHI",
		"province_id" : 75
	},
	{
		"id" : 7503,
		"name" : "อัมพวา",
		"name_en" : "AMPHAWA",
		"province_id" : 75
	},
	{
		"id" : 7601,
		"name" : "เมืองเพชรบุรี",
		"name_en" : "MUEANG PHETCHABURI",
		"province_id" : 76
	},
	{
		"id" : 7602,
		"name" : "เขาย้อย",
		"name_en" : "KHAO YOI",
		"province_id" : 76
	},
	{
		"id" : 7603,
		"name" : "หนองหญ้าปล้อง",
		"name_en" : "NONG YA PLONG",
		"province_id" : 76
	},
	{
		"id" : 7604,
		"name" : "ชะอำ",
		"name_en" : "CHA-AM",
		"province_id" : 76
	},
	{
		"id" : 7605,
		"name" : "ท่ายาง",
		"name_en" : "THA YANG",
		"province_id" : 76
	},
	{
		"id" : 7606,
		"name" : "บ้านลาด",
		"name_en" : "BAN LAT",
		"province_id" : 76
	},
	{
		"id" : 7607,
		"name" : "บ้านแหลม",
		"name_en" : "BAN LAEM",
		"province_id" : 76
	},
	{
		"id" : 7608,
		"name" : "แก่งกระจาน",
		"name_en" : "KAENG KRACHAN",
		"province_id" : 76
	},
	{
		"id" : 7701,
		"name" : "เมืองประจวบคีรีขันธ์",
		"name_en" : "MUEANG PRACHUAP KHIRI KHAN",
		"province_id" : 77
	},
	{
		"id" : 7702,
		"name" : "กุยบุรี",
		"name_en" : "KUI BURI",
		"province_id" : 77
	},
	{
		"id" : 7703,
		"name" : "ทับสะแก",
		"name_en" : "THAP SAKAE",
		"province_id" : 77
	},
	{
		"id" : 7704,
		"name" : "บางสะพาน",
		"name_en" : "BANG SAPHAN",
		"province_id" : 77
	},
	{
		"id" : 7705,
		"name" : "บางสะพานน้อย",
		"name_en" : "BANG SAPHAN NOI",
		"province_id" : 77
	},
	{
		"id" : 7706,
		"name" : "ปราณบุรี",
		"name_en" : "PRAN BURI",
		"province_id" : 77
	},
	{
		"id" : 7707,
		"name" : "หัวหิน",
		"name_en" : "HUA HIN",
		"province_id" : 77
	},
	{
		"id" : 7708,
		"name" : "สามร้อยยอด",
		"name_en" : "SAM ROI YOT",
		"province_id" : 77
	},
	{
		"id" : 8001,
		"name" : "เมืองนครศรีธรรมราช",
		"name_en" : "MUEANG NAKHON SI THAMMARAT",
		"province_id" : 80
	},
	{
		"id" : 8002,
		"name" : "พรหมคีรี",
		"name_en" : "PHROM KHIRI",
		"province_id" : 80
	},
	{
		"id" : 8003,
		"name" : "ลานสกา",
		"name_en" : "LAN SAKA",
		"province_id" : 80
	},
	{
		"id" : 8004,
		"name" : "ฉวาง",
		"name_en" : "CHAWANG",
		"province_id" : 80
	},
	{
		"id" : 8005,
		"name" : "พิปูน",
		"name_en" : "PHIPUN",
		"province_id" : 80
	},
	{
		"id" : 8006,
		"name" : "เชียรใหญ่",
		"name_en" : "CHIAN YAI",
		"province_id" : 80
	},
	{
		"id" : 8007,
		"name" : "ชะอวด",
		"name_en" : "CHA-UAT",
		"province_id" : 80
	},
	{
		"id" : 8008,
		"name" : "ท่าศาลา",
		"name_en" : "THA SALA",
		"province_id" : 80
	},
	{
		"id" : 8009,
		"name" : "ทุ่งสง",
		"name_en" : "THUNG SONG",
		"province_id" : 80
	},
	{
		"id" : 8010,
		"name" : "นาบอน",
		"name_en" : "NA BON",
		"province_id" : 80
	},
	{
		"id" : 8011,
		"name" : "ทุ่งใหญ่",
		"name_en" : "THUNG YAI",
		"province_id" : 80
	},
	{
		"id" : 8012,
		"name" : "ปากพนัง",
		"name_en" : "PAK PHANANG",
		"province_id" : 80
	},
	{
		"id" : 8013,
		"name" : "ร่อนพิบูลย์",
		"name_en" : "RON PHIBUN",
		"province_id" : 80
	},
	{
		"id" : 8014,
		"name" : "สิชล",
		"name_en" : "SICHON",
		"province_id" : 80
	},
	{
		"id" : 8015,
		"name" : "ขนอม",
		"name_en" : "KHANOM",
		"province_id" : 80
	},
	{
		"id" : 8016,
		"name" : "หัวไทร",
		"name_en" : "HUA SAI",
		"province_id" : 80
	},
	{
		"id" : 8017,
		"name" : "บางขัน",
		"name_en" : "BANG KHAN",
		"province_id" : 80
	},
	{
		"id" : 8018,
		"name" : "ถ้ำพรรณรา",
		"name_en" : "THAM PHANNARA",
		"province_id" : 80
	},
	{
		"id" : 8019,
		"name" : "จุฬาภรณ์",
		"name_en" : "CHULABHORN",
		"province_id" : 80
	},
	{
		"id" : 8020,
		"name" : "พระพรหม",
		"name_en" : "PHRA PHROM",
		"province_id" : 80
	},
	{
		"id" : 8021,
		"name" : "นบพิตำ",
		"name_en" : "NOPPHITAM",
		"province_id" : 80
	},
	{
		"id" : 8022,
		"name" : "ช้างกลาง",
		"name_en" : "CHANG KLANG",
		"province_id" : 80
	},
	{
		"id" : 8023,
		"name" : "เฉลิมพระเกียรติ",
		"name_en" : "CHALOEM PHRA KIAT",
		"province_id" : 80
	},
	{
		"id" : 8101,
		"name" : "เมืองกระบี่",
		"name_en" : "MUEANG KRABI",
		"province_id" : 81
	},
	{
		"id" : 8102,
		"name" : "เขาพนม",
		"name_en" : "KHAO PHANOM",
		"province_id" : 81
	},
	{
		"id" : 8103,
		"name" : "เกาะลันตา",
		"name_en" : "KO LANTA",
		"province_id" : 81
	},
	{
		"id" : 8104,
		"name" : "คลองท่อม",
		"name_en" : "KHLONG THOM",
		"province_id" : 81
	},
	{
		"id" : 8105,
		"name" : "อ่าวลึก",
		"name_en" : "AO LUEK",
		"province_id" : 81
	},
	{
		"id" : 8106,
		"name" : "ปลายพระยา",
		"name_en" : "PLAI PHRAYA",
		"province_id" : 81
	},
	{
		"id" : 8107,
		"name" : "ลำทับ",
		"name_en" : "LAM THAP",
		"province_id" : 81
	},
	{
		"id" : 8108,
		"name" : "เหนือคลอง",
		"name_en" : "NUEA KHLONG",
		"province_id" : 81
	},
	{
		"id" : 8201,
		"name" : "เมืองพังงา",
		"name_en" : "MUEANG PHANG-NGA",
		"province_id" : 82
	},
	{
		"id" : 8202,
		"name" : "เกาะยาว",
		"name_en" : "KO YAO",
		"province_id" : 82
	},
	{
		"id" : 8203,
		"name" : "กะปง",
		"name_en" : "KAPONG",
		"province_id" : 82
	},
	{
		"id" : 8204,
		"name" : "ตะกั่วทุ่ง",
		"name_en" : "TAKUA THUNG",
		"province_id" : 82
	},
	{
		"id" : 8205,
		"name" : "ตะกั่วป่า",
		"name_en" : "TAKUA PA",
		"province_id" : 82
	},
	{
		"id" : 8206,
		"name" : "คุระบุรี",
		"name_en" : "KHURA BURI",
		"province_id" : 82
	},
	{
		"id" : 8207,
		"name" : "ทับปุด",
		"name_en" : "THAP PUT",
		"province_id" : 82
	},
	{
		"id" : 8208,
		"name" : "ท้ายเหมือง",
		"name_en" : "THAI MUEANG",
		"province_id" : 82
	},
	{
		"id" : 8301,
		"name" : "เมืองภูเก็ต",
		"name_en" : "MUEANG PHUKET",
		"province_id" : 83
	},
	{
		"id" : 8302,
		"name" : "กะทู้",
		"name_en" : "KATHU",
		"province_id" : 83
	},
	{
		"id" : 8303,
		"name" : "ถลาง",
		"name_en" : "THALANG",
		"province_id" : 83
	},
	{
		"id" : 8401,
		"name" : "เมืองสุราษฎร์ธานี",
		"name_en" : "MUEANG SURAT THANI",
		"province_id" : 84
	},
	{
		"id" : 8402,
		"name" : "กาญจนดิษฐ์",
		"name_en" : "KANCHANADIT",
		"province_id" : 84
	},
	{
		"id" : 8403,
		"name" : "ดอนสัก",
		"name_en" : "DON SAK",
		"province_id" : 84
	},
	{
		"id" : 8404,
		"name" : "เกาะสมุย",
		"name_en" : "KO SAMUI",
		"province_id" : 84
	},
	{
		"id" : 8405,
		"name" : "เกาะพะงัน",
		"name_en" : "KO PHA-NGAN",
		"province_id" : 84
	},
	{
		"id" : 8406,
		"name" : "ไชยา",
		"name_en" : "CHAIYA",
		"province_id" : 84
	},
	{
		"id" : 8407,
		"name" : "ท่าชนะ",
		"name_en" : "THA CHANA",
		"province_id" : 84
	},
	{
		"id" : 8408,
		"name" : "คีรีรัฐนิคม",
		"name_en" : "KHIRI RAT NIKHOM",
		"province_id" : 84
	},
	{
		"id" : 8409,
		"name" : "บ้านตาขุน",
		"name_en" : "BAN TA KHUN",
		"province_id" : 84
	},
	{
		"id" : 8410,
		"name" : "พนม",
		"name_en" : "PHANOM",
		"province_id" : 84
	},
	{
		"id" : 8411,
		"name" : "ท่าฉาง",
		"name_en" : "THA CHANG",
		"province_id" : 84
	},
	{
		"id" : 8412,
		"name" : "บ้านนาสาร",
		"name_en" : "BAN NA SAN",
		"province_id" : 84
	},
	{
		"id" : 8413,
		"name" : "บ้านนาเดิม",
		"name_en" : "BAN NA DOEM",
		"province_id" : 84
	},
	{
		"id" : 8414,
		"name" : "เคียนซา",
		"name_en" : "KHIAN SA",
		"province_id" : 84
	},
	{
		"id" : 8415,
		"name" : "เวียงสระ",
		"name_en" : "WIANG SA",
		"province_id" : 84
	},
	{
		"id" : 8416,
		"name" : "พระแสง",
		"name_en" : "PHRASAENG",
		"province_id" : 84
	},
	{
		"id" : 8417,
		"name" : "พุนพิน",
		"name_en" : "PHUNPHIN",
		"province_id" : 84
	},
	{
		"id" : 8418,
		"name" : "ชัยบุรี",
		"name_en" : "CHAI BURI",
		"province_id" : 84
	},
	{
		"id" : 8419,
		"name" : "วิภาวดี",
		"name_en" : "VIBHAVADI",
		"province_id" : 84
	},
	{
		"id" : 8501,
		"name" : "เมืองระนอง",
		"name_en" : "MUEANG RANONG",
		"province_id" : 85
	},
	{
		"id" : 8502,
		"name" : "ละอุ่น",
		"name_en" : "LA-UN",
		"province_id" : 85
	},
	{
		"id" : 8503,
		"name" : "กะเปอร์",
		"name_en" : "KAPOE",
		"province_id" : 85
	},
	{
		"id" : 8504,
		"name" : "กระบุรี",
		"name_en" : "KRA BURI",
		"province_id" : 85
	},
	{
		"id" : 8505,
		"name" : "สุขสำราญ",
		"name_en" : "SUK SAMRAN",
		"province_id" : 85
	},
	{
		"id" : 8601,
		"name" : "เมืองชุมพร",
		"name_en" : "MUEANG CHUMPHON",
		"province_id" : 86
	},
	{
		"id" : 8602,
		"name" : "ท่าแซะ",
		"name_en" : "THA SAE",
		"province_id" : 86
	},
	{
		"id" : 8603,
		"name" : "ปะทิว",
		"name_en" : "PATHIO",
		"province_id" : 86
	},
	{
		"id" : 8604,
		"name" : "หลังสวน",
		"name_en" : "LANG SUAN",
		"province_id" : 86
	},
	{
		"id" : 8605,
		"name" : "ละแม",
		"name_en" : "LAMAE",
		"province_id" : 86
	},
	{
		"id" : 8606,
		"name" : "พะโต๊ะ",
		"name_en" : "PHATO",
		"province_id" : 86
	},
	{
		"id" : 8607,
		"name" : "สวี",
		"name_en" : "SAWI",
		"province_id" : 86
	},
	{
		"id" : 8608,
		"name" : "ทุ่งตะโก",
		"name_en" : "THUNG TAKO",
		"province_id" : 86
	},
	{
		"id" : 9001,
		"name" : "เมืองสงขลา",
		"name_en" : "MUEANG SONGKHLA",
		"province_id" : 90
	},
	{
		"id" : 9002,
		"name" : "สทิงพระ",
		"name_en" : "SATHING PHRA",
		"province_id" : 90
	},
	{
		"id" : 9003,
		"name" : "จะนะ",
		"name_en" : "CHANA",
		"province_id" : 90
	},
	{
		"id" : 9004,
		"name" : "นาทวี",
		"name_en" : "NA THAWI",
		"province_id" : 90
	},
	{
		"id" : 9005,
		"name" : "เทพา",
		"name_en" : "THEPHA",
		"province_id" : 90
	},
	{
		"id" : 9006,
		"name" : "สะบ้าย้อย",
		"name_en" : "SABA YOI",
		"province_id" : 90
	},
	{
		"id" : 9007,
		"name" : "ระโนด",
		"name_en" : "RANOT",
		"province_id" : 90
	},
	{
		"id" : 9008,
		"name" : "กระแสสินธุ์",
		"name_en" : "KRASAE SIN",
		"province_id" : 90
	},
	{
		"id" : 9009,
		"name" : "รัตภูมิ",
		"name_en" : "RATTAPHUM",
		"province_id" : 90
	},
	{
		"id" : 9010,
		"name" : "สะเดา",
		"name_en" : "SADAO",
		"province_id" : 90
	},
	{
		"id" : 9011,
		"name" : "หาดใหญ่",
		"name_en" : "HAT YAI",
		"province_id" : 90
	},
	{
		"id" : 9012,
		"name" : "นาหม่อม",
		"name_en" : "NA MOM",
		"province_id" : 90
	},
	{
		"id" : 9013,
		"name" : "ควนเนียง",
		"name_en" : "KHUAN NIANG",
		"province_id" : 90
	},
	{
		"id" : 9014,
		"name" : "บางกล่ำ",
		"name_en" : "BANG KLAM",
		"province_id" : 90
	},
	{
		"id" : 9015,
		"name" : "สิงหนคร",
		"name_en" : "SINGHANAKHON",
		"province_id" : 90
	},
	{
		"id" : 9016,
		"name" : "คลองหอยโข่ง",
		"name_en" : "KHLONG HOI KHONG",
		"province_id" : 90
	},
	{
		"id" : 9101,
		"name" : "เมืองสตูล",
		"name_en" : "MUEANG SATUN",
		"province_id" : 91
	},
	{
		"id" : 9102,
		"name" : "ควนโดน",
		"name_en" : "KHUAN DON",
		"province_id" : 91
	},
	{
		"id" : 9103,
		"name" : "ควนกาหลง",
		"name_en" : "KHUAN KALONG",
		"province_id" : 91
	},
	{
		"id" : 9104,
		"name" : "ท่าแพ",
		"name_en" : "THA PHAE",
		"province_id" : 91
	},
	{
		"id" : 9105,
		"name" : "ละงู",
		"name_en" : "LA-NGU",
		"province_id" : 91
	},
	{
		"id" : 9106,
		"name" : "ทุ่งหว้า",
		"name_en" : "THUNG WA",
		"province_id" : 91
	},
	{
		"id" : 9107,
		"name" : "มะนัง",
		"name_en" : "MANANG",
		"province_id" : 91
	},
	{
		"id" : 9201,
		"name" : "เมืองตรัง",
		"name_en" : "MUEANG TRANG",
		"province_id" : 92
	},
	{
		"id" : 9202,
		"name" : "กันตัง",
		"name_en" : "KANTANG",
		"province_id" : 92
	},
	{
		"id" : 9203,
		"name" : "ย่านตาขาว",
		"name_en" : "YAN TA KHAO",
		"province_id" : 92
	},
	{
		"id" : 9204,
		"name" : "ปะเหลียน",
		"name_en" : "PALIAN",
		"province_id" : 92
	},
	{
		"id" : 9205,
		"name" : "สิเกา",
		"name_en" : "SIKAO",
		"province_id" : 92
	},
	{
		"id" : 9206,
		"name" : "ห้วยยอด",
		"name_en" : "HUAI YOT",
		"province_id" : 92
	},
	{
		"id" : 9207,
		"name" : "วังวิเศษ",
		"name_en" : "WANG WISET",
		"province_id" : 92
	},
	{
		"id" : 9208,
		"name" : "นาโยง",
		"name_en" : "NA YONG",
		"province_id" : 92
	},
	{
		"id" : 9209,
		"name" : "รัษฎา",
		"name_en" : "RATSADA",
		"province_id" : 92
	},
	{
		"id" : 9210,
		"name" : "หาดสำราญ",
		"name_en" : "HAT SAMRAN",
		"province_id" : 92
	},
	{
		"id" : 9301,
		"name" : "เมืองพัทลุง",
		"name_en" : "MUEANG PHATTHALUNG",
		"province_id" : 93
	},
	{
		"id" : 9302,
		"name" : "กงหรา",
		"name_en" : "KONG RA",
		"province_id" : 93
	},
	{
		"id" : 9303,
		"name" : "เขาชัยสน",
		"name_en" : "KHAO CHAISON",
		"province_id" : 93
	},
	{
		"id" : 9304,
		"name" : "ตะโหมด",
		"name_en" : "TAMOT",
		"province_id" : 93
	},
	{
		"id" : 9305,
		"name" : "ควนขนุน",
		"name_en" : "KHUAN KHANUN",
		"province_id" : 93
	},
	{
		"id" : 9306,
		"name" : "ปากพะยูน",
		"name_en" : "PAK PHAYUN",
		"province_id" : 93
	},
	{
		"id" : 9307,
		"name" : "ศรีบรรพต",
		"name_en" : "SI BANPHOT",
		"province_id" : 93
	},
	{
		"id" : 9308,
		"name" : "ป่าบอน",
		"name_en" : "PA BON",
		"province_id" : 93
	},
	{
		"id" : 9309,
		"name" : "บางแก้ว",
		"name_en" : "BANG KAEO",
		"province_id" : 93
	},
	{
		"id" : 9310,
		"name" : "ป่าพะยอม",
		"name_en" : "PA PHAYOM",
		"province_id" : 93
	},
	{
		"id" : 9311,
		"name" : "ศรีนครินทร์",
		"name_en" : "SRINAGARINDRA",
		"province_id" : 93
	},
	{
		"id" : 9401,
		"name" : "เมืองปัตตานี",
		"name_en" : "MUEANG PATTANI",
		"province_id" : 94
	},
	{
		"id" : 9402,
		"name" : "โคกโพธิ์",
		"name_en" : "KHOK PHO",
		"province_id" : 94
	},
	{
		"id" : 9403,
		"name" : "หนองจิก",
		"name_en" : "NONG CHIK",
		"province_id" : 94
	},
	{
		"id" : 9404,
		"name" : "ปะนาเระ",
		"name_en" : "PANARE",
		"province_id" : 94
	},
	{
		"id" : 9405,
		"name" : "มายอ",
		"name_en" : "MAYO",
		"province_id" : 94
	},
	{
		"id" : 9406,
		"name" : "ทุ่งยางแดง",
		"name_en" : "THUNG YANG DAENG",
		"province_id" : 94
	},
	{
		"id" : 9407,
		"name" : "สายบุรี",
		"name_en" : "SAI BURI",
		"province_id" : 94
	},
	{
		"id" : 9408,
		"name" : "ไม้แก่น",
		"name_en" : "MAI KAEN",
		"province_id" : 94
	},
	{
		"id" : 9409,
		"name" : "ยะหริ่ง",
		"name_en" : "YARING",
		"province_id" : 94
	},
	{
		"id" : 9410,
		"name" : "ยะรัง",
		"name_en" : "YARANG",
		"province_id" : 94
	},
	{
		"id" : 9411,
		"name" : "กะพ้อ",
		"name_en" : "KAPHO",
		"province_id" : 94
	},
	{
		"id" : 9412,
		"name" : "แม่ลาน",
		"name_en" : "MAE LAN",
		"province_id" : 94
	},
	{
		"id" : 9501,
		"name" : "เมืองยะลา",
		"name_en" : "MUEANG YALA",
		"province_id" : 95
	},
	{
		"id" : 9502,
		"name" : "เบตง",
		"name_en" : "BETONG",
		"province_id" : 95
	},
	{
		"id" : 9503,
		"name" : "บันนังสตา",
		"name_en" : "BANNANG SATA",
		"province_id" : 95
	},
	{
		"id" : 9504,
		"name" : "ธารโต",
		"name_en" : "THAN TO",
		"province_id" : 95
	},
	{
		"id" : 9505,
		"name" : "ยะหา",
		"name_en" : "YAHA",
		"province_id" : 95
	},
	{
		"id" : 9506,
		"name" : "รามัน",
		"name_en" : "RAMAN",
		"province_id" : 95
	},
	{
		"id" : 9507,
		"name" : "กาบัง",
		"name_en" : "KABANG",
		"province_id" : 95
	},
	{
		"id" : 9508,
		"name" : "กรงปินัง",
		"name_en" : "KRONG PINANG",
		"province_id" : 95
	},
	{
		"id" : 9601,
		"name" : "เมืองนราธิวาส",
		"name_en" : "MUEANG NARATHIWAT",
		"province_id" : 96
	},
	{
		"id" : 9602,
		"name" : "ตากใบ",
		"name_en" : "TAK BAI",
		"province_id" : 96
	},
	{
		"id" : 9603,
		"name" : "บาเจาะ",
		"name_en" : "BACHO",
		"province_id" : 96
	},
	{
		"id" : 9604,
		"name" : "ยี่งอ",
		"name_en" : "YI-NGO",
		"province_id" : 96
	},
	{
		"id" : 9605,
		"name" : "ระแงะ",
		"name_en" : "RA-NGAE",
		"province_id" : 96
	},
	{
		"id" : 9606,
		"name" : "รือเสาะ",
		"name_en" : "RUESO",
		"province_id" : 96
	},
	{
		"id" : 9607,
		"name" : "ศรีสาคร",
		"name_en" : "SI SAKHON",
		"province_id" : 96
	},
	{
		"id" : 9608,
		"name" : "แว้ง",
		"name_en" : "WAENG",
		"province_id" : 96
	},
	{
		"id" : 9609,
		"name" : "สุคิริน",
		"name_en" : "SUKHIRIN",
		"province_id" : 96
	},
	{
		"id" : 9610,
		"name" : "สุไหงโก-ลก",
		"name_en" : "SU-NGAI KOLOK",
		"province_id" : 96
	},
	{
		"id" : 9611,
		"name" : "สุไหงปาดี",
		"name_en" : "SU-NGAI PADI",
		"province_id" : 96
	},
	{
		"id" : 9612,
		"name" : "จะแนะ",
		"name_en" : "CHANAE",
		"province_id" : 96
	},
	{
		"id" : 9613,
		"name" : "เจาะไอร้อง",
		"name_en" : "CHO-AIRONG",
		"province_id" : 96
	}
]
